{
  "version": 0.6,
  "generator": "Overpass API 0.7.58.2 2b5354b1",
  "osm3s": {
    "copyright": "The data included in this document is from www.openstreetmap.org. The data is made available under ODbL."
  },
  "elements": [

{
  "type": "node",
  "id": 663040775,
  "lat": 49.1698728,
  "lon": 16.5811264,
  "tags": {
    "addr:city": "Brno",
    "addr:housenumber": "577/3",
    "addr:postcode": "625 00",
    "addr:street": "Dlouhá",
    "bulk_purchase": "yes",
    "name": "Zvaž to - bezobalový obchod",
    "opening_hours": "Mo-Fr 12:00-18:00; Sa 10:00-14:00",
    "operator": "Zvaž to",
    "payment:cash": "yes",
    "payment:coins": "yes",
    "payment:credit_cards": "yes",
    "payment:debit_cards": "yes",
    "phone": "731 904 806",
    "shop": "health_food",
    "website": "https://www.bezobalovyobchod.cz/"
  }
},
{
  "type": "node",
  "id": 797334834,
  "lat": 49.2088991,
  "lon": 16.5558254,
  "tags": {
    "service": "parts",
    "shop": "health_food",
    "source": "local knowledge"
  }
},
{
  "type": "node",
  "id": 3243778864,
  "lat": 49.1923551,
  "lon": 16.6047142,
  "tags": {
    "addr:city": "Brno",
    "addr:housenumber": "2",
    "addr:postcode": "60200",
    "addr:street": "Pekařská",
    "email": "awprodejna.brno@tvaruzky.cz",
    "name": "Prodejna Olomouckých tvarůžků",
    "opening_hours": "Mo-Fr 08:30-18:00; Sa 8:30-12:30",
    "operator": "A. W. spol. s r. o.",
    "phone": "+420 539 011 444",
    "shop": "health_food",
    "website": "https://www.tvaruzky.cz/prodejna-brno"
  }
},
{
  "type": "node",
  "id": 3462485661,
  "lat": 49.1937796,
  "lon": 16.6117027,
  "tags": {
    "addr:city": "Brno",
    "addr:housenumber": "17",
    "addr:postcode": "60200",
    "addr:street": "Orlí",
    "bulk_purchase": "yes",
    "name": "Brána ke zdraví",
    "opening_hours": "Mo-Fr 07:30-18:00",
    "phone": "+420 725 065 899",
    "shop": "health_food",
    "website": "http://www.branakezdravi.cz/",
    "wheelchair": "no"
  }
},
{
  "type": "node",
  "id": 3505188494,
  "lat": 49.1984114,
  "lon": 16.6014093,
  "tags": {
    "addr:city": "Brno",
    "addr:housenumber": "8",
    "addr:postcode": "60200",
    "addr:street": "Jaselská",
    "name": "Zlatý Klíček",
    "opening_hours:signed": "no",
    "shop": "health_food",
    "wheelchair": "no"
  }
},
{
  "type": "node",
  "id": 5387382568,
  "lat": 49.1948160,
  "lon": 16.6094720,
  "tags": {
    "level": "1",
    "name": "Zdraví s chutí",
    "opening_hours": "Mo-Fr 08:00-19:00; Sa 09:00-17:00; Su off",
    "shop": "health_food"
  }
},
{
  "type": "node",
  "id": 5536626371,
  "lat": 49.2228790,
  "lon": 16.5949719,
  "tags": {
    "contact:email": "pamo@pamo.cz",
    "contact:phone": "+420 731170110",
    "contact:website": "http://www.pamo.cz",
    "name": "PAMO",
    "opening_hours": "Mo-Fr 09:00-13:00,13:30-18:00",
    "shop": "health_food"
  }
},
{
  "type": "node",
  "id": 5555169889,
  "lat": 49.2064808,
  "lon": 16.6757402,
  "tags": {
    "addr:city": "Brno - Líšeň",
    "addr:housenumber": "2407/7",
    "addr:postcode": "62800",
    "addr:street": "Masarova",
    "email": "lisen@sklizeno.cz",
    "name": "Sklizeno",
    "opening_hours": "Mo-Fr 08:00-19:00; Sa 08:00-13:00",
    "operator": "Sklizeno",
    "payment:cards": "yes",
    "payment:cash": "yes",
    "shop": "health_food",
    "website": "https://www.sklizeno.cz"
  }
},
{
  "type": "node",
  "id": 5595684930,
  "lat": 49.5035258,
  "lon": 16.5073035,
  "tags": {
    "name": "Špajz",
    "operator": "Soňa Suchá",
    "shop": "health_food"
  }
},
{
  "type": "node",
  "id": 5908393391,
  "lat": 49.2066287,
  "lon": 16.6017677,
  "tags": {
    "name": "ZDRAVEvBRNE.cz",
    "opening_hours": "Mo-Fr 09:00-19:00; Sa 08:30-12:00",
    "phone": "+420 732674275",
    "shop": "health_food",
    "website": "http://zdravevbrne.cz",
    "wheelchair": "limited"
  }
},
{
  "type": "node",
  "id": 6434023771,
  "lat": 49.2341208,
  "lon": 16.6256351,
  "tags": {
    "name": "Zdravé potraviny",
    "opening_hours": "Mo-Fr 06:45-18:00;Sa 08:00-12:00",
    "shop": "health_food"
  }
},
{
  "type": "node",
  "id": 7101257214,
  "lat": 49.2023533,
  "lon": 16.6079867,
  "tags": {
    "email": "obchod@zzbrno.cz",
    "name": "Zdravý život",
    "opening_hours": "Mo-Fr 08:00-18:00; Sa 09:00-12:00",
    "phone": "+420 549 240 056",
    "shop": "health_food",
    "website": "http://www.zzbrno.cz/prodejna/prodejna.html",
    "wheelchair": "yes"
  }
},
{
  "type": "node",
  "id": 7295308520,
  "lat": 49.4103980,
  "lon": 16.6397047,
  "tags": {
    "email": "klimes.jitka@seznam.cz",
    "name": "Zdravá výživa NABO",
    "opening_hours": "Mo-Fr 08:00-12:00,13:00-17:00; Sa 08:00-12:00",
    "payment:maestro": "yes",
    "payment:mastercard": "yes",
    "payment:visa": "yes",
    "payment:visa_debit": "yes",
    "payment:visa_electron": "yes",
    "phone": "+420 739 642 129",
    "shop": "health_food",
    "website": "https://www.nabo-rajec.cz/"
  }
},
{
  "type": "node",
  "id": 7412535911,
  "lat": 49.0103130,
  "lon": 17.1241984,
  "tags": {
    "addr:housenumber": "39",
    "addr:street": "Masarykovo náměstí",
    "name": "Něha",
    "phone": "607 054 065",
    "shop": "health_food"
  }
},
{
  "type": "node",
  "id": 7431363120,
  "lat": 49.0638838,
  "lon": 17.0293300,
  "tags": {
    "email": "violka221@seznam.cz",
    "name": "Zdravá výživa Violka",
    "opening_hours": "Mo-Fr 08:00-11:30,13:00-16:30; Sa 08:00-11:00",
    "phone": "+420 518 633 121",
    "shop": "health_food",
    "website": "https://www.bioviolka.cz/"
  }
},
{
  "type": "node",
  "id": 7598162405,
  "lat": 49.1526935,
  "lon": 16.8765486,
  "tags": {
    "name": "Potraviny Zdravísek",
    "shop": "health_food"
  }
},
{
  "type": "node",
  "id": 7637390835,
  "lat": 49.2779221,
  "lon": 16.9982112,
  "tags": {
    "addr:city": "Vyškov",
    "addr:housenumber": "4",
    "addr:postcode": "68201",
    "addr:street": "Jana Šoupala",
    "name": "Zdravá výživa - Petra",
    "opening_hours": "Mo-Fr 08:00-17:00",
    "payment:cash": "yes",
    "phone": "+420517347555",
    "shop": "health_food",
    "website": "http://www.montops.cz/petra-prodejna/"
  }
},
{
  "type": "node",
  "id": 7847668106,
  "lat": 49.1985015,
  "lon": 16.5945561,
  "tags": {
    "name": "Zdravá výživa",
    "opening_hours": "Mo-Fr 10:00-12:30,13:00-18:00",
    "shop": "health_food",
    "website": "http://www.zdravavyziva-udolni.cz/",
    "wheelchair": "no"
  }
},
{
  "type": "node",
  "id": 7988202820,
  "lat": 49.1876801,
  "lon": 16.6429798,
  "tags": {
    "shop": "health_food",
    "survey:date": "2020-10-04"
  }
},
{
  "type": "node",
  "id": 8360797357,
  "lat": 49.2185029,
  "lon": 16.5529764,
  "tags": {
    "email": "z.vyziva.foltyn@seznam.cz",
    "name": "Zdravá výživa",
    "opening_hours": "Mo-Fr 09:00-18:00",
    "phone": "+420721837384",
    "shop": "health_food"
  }
},
{
  "type": "node",
  "id": 8635355636,
  "lat": 49.2031193,
  "lon": 16.8817098,
  "tags": {
    "name": "Zdravá výživa",
    "opening_hours": "Mo-Fr 09:00-12:00; Mo-Fr 14:30-16:30; Sa 09:00-11:00",
    "operator": "Adéla Mrňková",
    "payment:diners_club": "yes",
    "payment:discover_card": "yes",
    "payment:jcb": "yes",
    "payment:maestro": "yes",
    "payment:mastercard": "yes",
    "payment:visa": "yes",
    "payment:visa_debit": "yes",
    "payment:visa_electron": "yes",
    "phone": "+420 739 338 809",
    "shop": "health_food"
  }
},
{
  "type": "node",
  "id": 9088219022,
  "lat": 49.2091477,
  "lon": 16.6873713,
  "tags": {
    "addr:city": "Brno-Líšeň",
    "addr:housenumber": "1b",
    "addr:postcode": "62800",
    "addr:street": "Bednaříkova",
    "email": "vega@vegaproject.cz",
    "name": "VEGA shop & coffee",
    "opening_hours": "Mo-Fr 09:00-19:00; Sa 09:00-13:00",
    "operator": "Vega project s.r.o.",
    "payment:cards": "yes",
    "payment:cash": "yes",
    "phone": "+420 608 828 328",
    "shop": "health_food",
    "website": "https://www.vega-shop.cz/"
  }
},
{
  "type": "node",
  "id": 9170367931,
  "lat": 49.2085642,
  "lon": 16.6858597,
  "tags": {
    "addr:city": "Brno-Líšeň",
    "addr:housenumber": "6",
    "addr:postcode": "62800",
    "addr:street": "Jírova",
    "email": "obchod@nalontu.cz",
    "name": "Na lontu",
    "opening_hours": "Mo-Tu 09:00-18:00 We 09:00-17:00 Th-Fr 09:00-18:00 Sa 09:00-12:00",
    "payment:cash": "yes",
    "payment:credit_cards": "yes",
    "phone": "0420 737 156 509",
    "shop": "health_food",
    "website": "www.nalontu.cz"
  }
},
{
  "type": "node",
  "id": 9423637882,
  "lat": 49.5579729,
  "lon": 16.4230064,
  "tags": {
    "opening_hours": "Mo-Fr 08:00-17:00; Sa 08:00-15:00; Su 09:00-13:00",
    "shop": "health_food"
  }
},
{
  "type": "way",
  "id": 253974427,
  "nodes": [
    2598209677,
    4835533302,
    7537688392,
    7537688391,
    2598209675,
    2598209671,
    2598209677
  ],
  "tags": {
    "amenity": "cafe",
    "building": "commercial",
    "building:ruian:type": "10",
    "bulk_purchase": "yes",
    "email": "uvlacku@email.cz",
    "name": "U Vláčku",
    "opening_hours": "Mo-Fr 07:00-19:00; Sa 09:00-12:00",
    "payment:diners_club": "yes",
    "payment:discover_card": "yes",
    "payment:jcb": "yes",
    "payment:maestro": "yes",
    "payment:mastercard": "yes",
    "payment:visa": "yes",
    "payment:visa_debit": "yes",
    "payment:visa_electron": "yes",
    "ref:ruian:building": "15114881",
    "shop": "health_food",
    "smoking": "no",
    "source": "cuzk:ruian",
    "website": "https://www.facebook.com/UVlacku"
  }
},
{
  "type": "way",
  "id": 253974442,
  "nodes": [
    7537688380,
    2598209663,
    2598209668,
    7537688379,
    2598209670,
    7537688378,
    2598209672,
    7537688377,
    2598209679,
    7537688376,
    7537688375,
    2598209678,
    7537688374,
    7537688373,
    2598209676,
    7537688380
  ],
  "tags": {
    "amenity": "cafe",
    "building": "yes",
    "building:levels": "2",
    "building:ruian:type": "20",
    "bulk_purchase": "yes",
    "email": "info@julies-bezobalu.cz",
    "name": "Julie's cafe",
    "opening_hours": "Mo-Fr 08:00-18:00; Su 13:00-18:00",
    "payment:maestro": "yes",
    "payment:mastercard": "yes",
    "payment:visa": "yes",
    "payment:visa_debit": "yes",
    "payment:visa_electron": "yes",
    "phone": "+420 773 486 652",
    "ref:ruian:building": "54361087",
    "shop": "health_food",
    "source": "cuzk:ruian",
    "start_date": "2013-08-05",
    "website": "http://www.julies-bezobalu.cz/"
  }
},
{
  "type": "node",
  "id": 2598209663,
  "lat": 49.3605451,
  "lon": 16.6411776
},
{
  "type": "node",
  "id": 2598209668,
  "lat": 49.3605926,
  "lon": 16.6411013
},
{
  "type": "node",
  "id": 2598209670,
  "lat": 49.3606043,
  "lon": 16.6410981
},
{
  "type": "node",
  "id": 2598209671,
  "lat": 49.3606076,
  "lon": 16.6416424
},
{
  "type": "node",
  "id": 2598209672,
  "lat": 49.3606145,
  "lon": 16.6411071
},
{
  "type": "node",
  "id": 2598209675,
  "lat": 49.3606563,
  "lon": 16.6417985
},
{
  "type": "node",
  "id": 2598209676,
  "lat": 49.3606713,
  "lon": 16.6413517
},
{
  "type": "node",
  "id": 2598209677,
  "lat": 49.3606834,
  "lon": 16.6415889
},
{
  "type": "node",
  "id": 2598209678,
  "lat": 49.3606885,
  "lon": 16.6413461
},
{
  "type": "node",
  "id": 2598209679,
  "lat": 49.3606941,
  "lon": 16.6413221
},
{
  "type": "node",
  "id": 4835533302,
  "lat": 49.3607310,
  "lon": 16.6417427
},
{
  "type": "node",
  "id": 7537688373,
  "lat": 49.3606776,
  "lon": 16.6413528
},
{
  "type": "node",
  "id": 7537688374,
  "lat": 49.3606833,
  "lon": 16.6413505
},
{
  "type": "node",
  "id": 7537688375,
  "lat": 49.3606921,
  "lon": 16.6413390
},
{
  "type": "node",
  "id": 7537688376,
  "lat": 49.3606942,
  "lon": 16.6413300
},
{
  "type": "node",
  "id": 7537688377,
  "lat": 49.3606928,
  "lon": 16.6413142
},
{
  "type": "node",
  "id": 7537688378,
  "lat": 49.3606095,
  "lon": 16.6411008
},
{
  "type": "node",
  "id": 7537688379,
  "lat": 49.3605983,
  "lon": 16.6410984
},
{
  "type": "node",
  "id": 7537688380,
  "lat": 49.3606647,
  "lon": 16.6413465
},
{
  "type": "node",
  "id": 7537688391,
  "lat": 49.3607306,
  "lon": 16.6417462
},
{
  "type": "node",
  "id": 7537688392,
  "lat": 49.3607297,
  "lon": 16.6417438
}

  ]
}
