{
  "elements": [
    {
      "type": "node",
      "id": 1514495833,
      "lat": 49.2012751,
      "lon": 16.6112275,
      "tags": {
        "addr:city": "Brno",
        "addr:housenumber": "10",
        "addr:postcode": "60200",
        "addr:street": "třída Kpt. Jaroše",
        "amenity": "restaurant",
        "delivery": "yes",
        "diet:vegetarian": "only",
        "email": "info.gopal.menu@gmail.com",
        "mobile": "+420 734 755 424",
        "name": "Gopal",
        "opening_hours": "Mo-Fr 08:00-18:00",
        "payment:american_express": "yes",
        "payment:diners_club": "yes",
        "payment:maestro": "yes",
        "payment:mastercard": "yes",
        "payment:visa": "yes",
        "payment:visa_debit": "yes",
        "payment:visa_electron": "yes",
        "takeaway": "yes",
        "website": "https://gopal.menu/",
        "wheelchair": "no"
      }
    },
    {
      "type": "node",
      "id": 2408787201,
      "lat": 49.2232591,
      "lon": 16.5955806,
      "tags": {
        "addr:city": "Brno",
        "addr:country": "CZ",
        "addr:housenumber": "2",
        "addr:postcode": "61200",
        "addr:street": "Malátova",
        "addr:streetnumber": "2",
        "amenity": "restaurant",
        "diet:vegetarian": "only",
        "name": "Bio Bistro Spirála",
        "opening_hours": "Mo-Fr 09:00-15:00",
        "website": "www.bio-restaurace.cz/",
        "wheelchair": "no"
      }
    },
    {
      "type": "node",
      "id": 2444928077,
      "lat": 48.8544615,
      "lon": 16.0475654,
      "tags": {
        "addr:conscriptionnumber": "463",
        "addr:housenumber": "463/11",
        "addr:place": "Znojmo",
        "addr:postcode": "66902",
        "addr:street": "Velká Mikulášská",
        "addr:streetnumber": "11",
        "amenity": "restaurant",
        "diet:vegetarian": "only",
        "name": "Na věčnosti",
        "opening_hours": "Mo-Th 10:30-22:00; Fr 10:30-24:00; Sa 11:00-24:00; Su 11:00-22:00",
        "payment:jcb": "yes",
        "payment:maestro": "yes",
        "payment:mastercard": "yes",
        "payment:visa": "yes",
        "payment:visa_debit": "yes",
        "payment:visa_electron": "yes",
        "ref:ruian:addr": "10985522",
        "website": "http://www.navecnosti.cz/",
        "wifi": "yes"
      }
    },
    {
      "type": "node",
      "id": 3775719870,
      "lat": 49.1918319,
      "lon": 16.6125639,
      "tags": {
        "amenity": "cafe",
        "diet:vegetarian": "only",
        "indoor_seating": "no",
        "level": "0",
        "name": "Trdlokafe",
        "opening_hours": "Mo-Fr 06:00-22:00; Sa,Su 08:00-22:00",
        "outdoor_seating": "no",
        "takeaway": "only",
        "wheelchair": "yes"
      }
    },
    {
      "type": "node",
      "id": 4590387590,
      "lat": 49.1902681,
      "lon": 16.6103574,
      "tags": {
        "amenity": "fast_food",
        "diet:vegetarian": "only",
        "indoor_seating": "no",
        "name": "Trdlokafé",
        "opening_hours": "Mo-Su 05:30-20:00",
        "outdoor_seating": "no",
        "takeaway": "only",
        "wheelchair": "yes"
      }
    },
    {
      "type": "node",
      "id": 10231314684,
      "lat": 49.1994983,
      "lon": 16.6136485,
      "tags": {
        "amenity": "restaurant",
        "diet:vegetarian": "only",
        "level": "0",
        "name": "spirála",
        "opening_hours": "Mo-Fr 09:00-14:00",
        "outdoor_seating": "yes",
        "wheelchair": "yes"
      }
    }
  ]
}