{
  "version": 0.6,
  "osm3s": {
    "copyright": "The data included in this document is from www.openstreetmap.org. The data is made available under ODbL."
  },
  "elements": [

{
  "type": "node",
  "id": 2916528158,
  "lat": 49.1963816,
  "lon": 16.6088699,
  "tags": {
    "addr:city": "Brno",
    "addr:housenumber": "109/1",
    "addr:postcode": "60200",
    "addr:street": "Jakubské náměstí",
    "amenity": "restaurant",
    "capacity": "160",
    "cuisine": "international",
    "diet:gluten_free": "yes",
    "diet:raw": "yes",
    "diet:vegan": "only",
    "diet:vegetarian": "only",
    "name": "Forky's",
    "opening_hours": "Mo-Fr 11:00-21:00; Sa 12:00-21:00; Su 12:00-18:00",
    "outdoor_seating": "yes",
    "phone": "+420 515 908 665",
    "takeaway": "yes",
    "website": "https://www.forkys.eu/",
    "wheelchair": "yes"
  }
},
{
  "type": "node",
  "id": 3098348684,
  "lat": 49.1998261,
  "lon": 16.5966001,
  "tags": {
    "addr:city": "Brno",
    "addr:housenumber": "1a",
    "addr:postcode": "60200",
    "addr:street": "Jiráskova",
    "amenity": "cafe",
    "cuisine": "dessert",
    "diet:raw": "yes",
    "diet:vegan": "yes",
    "diet:vegetarian": "yes",
    "name": "Tutti Frutti",
    "opening_hours": "Mo-Su 10:00-18:00",
    "phone": "+420722944536",
    "website": "https://cukrarna-tutti-frutti.webnode.cz/",
    "wheelchair": "limited"
  }
},
{
  "type": "node",
  "id": 3505137763,
  "lat": 49.1905790,
  "lon": 16.5939745,
  "tags": {
    "addr:city": "Brno",
    "addr:housenumber": "18",
    "addr:postcode": "60300",
    "addr:street": "Mendlovo náměstí",
    "amenity": "cafe",
    "check_date:opening_hours": "2023-06-24",
    "diet:gluten_free": "yes",
    "diet:raw": "yes",
    "diet:vegan": "yes",
    "diet:vegetarian": "yes",
    "name": "Tutti Frutti",
    "opening_hours": "Mo-Fr 06:30-18:30; Sa-Su 09:00-18:00",
    "phone": "+420 727 965 707",
    "website": "https://www.tuttifrutti.cz/"
  }
},
{
  "type": "node",
  "id": 5997893486,
  "lat": 49.1913517,
  "lon": 16.6216798,
  "tags": {
    "addr:city": "Brno",
    "addr:housenumber": "45",
    "addr:postcode": "60200",
    "addr:street": "Křenová",
    "amenity": "cafe",
    "diet:halal": "no",
    "diet:kosher": "no",
    "diet:lactose_free": "yes",
    "diet:raw": "yes",
    "diet:vegan": "yes",
    "diet:vegetarian": "only",
    "email": "veg8cafe@email.cz",
    "name": "Veg8café",
    "opening_hours": "Mo-Fr 07:00-14:00",
    "phone": "+420 776670608",
    "takeaway": "yes",
    "website": "http://www.veg8cafe.cz/",
    "wheelchair": "no"
  }
},
{
  "type": "node",
  "id": 8429279706,
  "lat": 49.1810779,
  "lon": 16.6196178,
  "tags": {
    "amenity": "restaurant",
    "diet:raw": "only",
    "diet:vegan": "only",
    "name": "MyRaw Food Bar",
    "opening_hours": "Mo-Fr 11:00-16:00",
    "phone": "+420 739 665 746",
    "website": "https://www.myraw.cz/brno"
  }
},
{
  "type": "node",
  "id": 10082219762,
  "lat": 49.1912767,
  "lon": 16.6132826,
  "tags": {
    "amenity": "fast_food",
    "contact:facebook": "https://www.facebook.com/mashbrobrno",
    "contact:instagram": "https://www.instagram.com/mashbro_cz/",
    "diet:fruitarian": "yes",
    "diet:gluten_free": "yes",
    "diet:raw": "yes",
    "diet:vegetarian": "yes",
    "email": "info@mashbro.cz",
    "name": "MASHBRO",
    "opening_hours": "06:00-19:00",
    "phone": "+420 733 388 692",
    "website": "https://www.mashbro.cz/"
  }
}

  ]
}
