{
  "elements": [
    {
      "type": "way",
      "id": 74059822,
      "center": {
        "lat": 48.8526593,
        "lon": 16.0581484
      },
      "nodes": [
        2985858502,
        2985858498,
        2985858500,
        2985858505,
        2985858507,
        2985858506,
        2985858502
      ],
      "tags": {
        "amenity": "fast_food",
        "building": "yes",
        "building:ruian:type": "19",
        "check_date:opening_hours": "2022-02-16",
        "diet:vegetarian": "yes",
        "name": "Circus",
        "opening_hours": "Mo-Fr 07:00-19:00",
        "ref:ruian:building": "42964946",
        "source": "cuzk:ruian"
      }
    },
    {
      "type": "way",
      "id": 161463676,
      "center": {
        "lat": 49.1903531,
        "lon": 16.6135886
      },
      "nodes": [
        1734286819,
        1734286820,
        1734286821,
        3964171664,
        1734286829,
        3964171674,
        3964171676,
        3964171679,
        3964171677,
        1734286844,
        3964171669,
        3964171666,
        1734286824,
        1734286818,
        3964171660,
        1734286816,
        1734286819
      ],
      "tags": {
        "amenity": "fast_food",
        "building": "civic",
        "building:levels": "1",
        "building:ruian:type": "15",
        "cuisine": "asian",
        "diet:vegetarian": "yes",
        "indoor_seating": "yes",
        "name": "Orient V.",
        "opening_hours": "Mo-Su 08:00-21:00",
        "outdoor_seating": "yes",
        "ref:ruian:building": "30719992",
        "roof:levels": "0",
        "roof:shape": "flat",
        "source": "cuzk:ruian",
        "wheelchair": "limited"
      }
    },
    {
      "type": "node",
      "id": 296608120,
      "lat": 49.1969623,
      "lon": 16.6085328,
      "tags": {
        "addr:city": "Brno",
        "addr:conscriptionnumber": "128",
        "addr:housenumber": "128/6",
        "addr:postcode": "60200",
        "addr:street": "Jakubské náměstí",
        "addr:streetnumber": "6",
        "amenity": "restaurant",
        "cuisine": "international",
        "diet:vegetarian": "yes",
        "internet_access": "wlan",
        "name": "Jakoby",
        "opening_hours": "Mo-Th 11:00-24:00; Fr 11:00-01:00, Sa 12:00-01:00, Su 12:00-23:00",
        "outdoor_seating": "yes",
        "phone": "+420 602 525 629",
        "source:addr": "uir_adr",
        "source:position": "cuzk:km",
        "uir_adr:ADRESA_KOD": "19094841",
        "website": "http://www.restauracejakoby.cz/",
        "wheelchair": "no"
      }
    },
    {
      "type": "node",
      "id": 296620839,
      "lat": 49.1995359,
      "lon": 16.6024906,
      "tags": {
        "addr:city": "Brno",
        "addr:conscriptionnumber": "461",
        "addr:housenumber": "461/14",
        "addr:postcode": "60200",
        "addr:street": "Veveří",
        "addr:streetnumber": "14",
        "amenity": "restaurant",
        "diet:vegetarian": "yes",
        "indoor_seating": "yes",
        "internet_access": "wlan",
        "name": "Bistro Franz",
        "opening_hours": "Tu-Su 08:30-14:30",
        "outdoor_seating": "no",
        "phone": "+420 720 113 502",
        "source:addr": "uir_adr",
        "uir_adr:ADRESA_KOD": "19170556",
        "website": "http://www.bistrofranz.cz/",
        "wheelchair": "no"
      }
    },
    {
      "type": "node",
      "id": 377071741,
      "lat": 49.1952897,
      "lon": 16.6447628,
      "tags": {
        "addr:city": "Brno",
        "addr:housenumber": "3216/78",
        "addr:postcode": "61500",
        "addr:street": "Táborská",
        "amenity": "restaurant",
        "check_date:opening_hours": "2023-06-23",
        "cuisine": "pizza;burger",
        "delivery": "yes",
        "diet:vegan": "no",
        "diet:vegetarian": "yes",
        "name": "Don Antonio Pizza & Burger",
        "opening_hours": "Mo-Su 10:00-23:00",
        "phone": "+420 702 33 00 33",
        "takeaway": "only",
        "website": "https://www.donantonio.cz"
      }
    },
    {
      "type": "node",
      "id": 387773428,
      "lat": 49.1935414,
      "lon": 16.6395473,
      "tags": {
        "addr:city": "Brno",
        "addr:housenumber": "456/157",
        "addr:postcode": "63600",
        "addr:street": "Táborská",
        "amenity": "restaurant",
        "check_date:opening_hours": "2023-06-23",
        "contact:email": "info@namaskar.cz",
        "contact:facebook": "https://www.facebook.com/Namaskarbrno",
        "contact:website": "https://www.namaskar.cz",
        "cuisine": "indian",
        "diet:vegetarian": "yes",
        "name": "Namaskar",
        "opening_hours": "Mo-Th 10:00-22:00; Fr-Sa 10:30-23:00; Su 11:30-22:00"
      }
    },
    {
      "type": "node",
      "id": 452326805,
      "lat": 49.2091127,
      "lon": 16.6009335,
      "tags": {
        "addr:city": "Brno",
        "addr:housenumber": "22",
        "addr:postcode": "60200",
        "addr:street": "Dřevařská",
        "amenity": "restaurant",
        "diet:meat": "yes",
        "diet:vegetarian": "yes",
        "email": "info@udrevaka.cz",
        "name": "U Dřeváka Beer & Grill",
        "opening_hours": "Mo-Th 11:00-00:00; Fr 11:00-01:00; Sa 11:30-01:00; Su 11:30-00:00",
        "phone": "+420 724 000 723",
        "website": "https://www.udrevaka.cz/"
      }
    },
    {
      "type": "node",
      "id": 582498699,
      "lat": 49.2103992,
      "lon": 16.6014543,
      "tags": {
        "addr:city": "Brno",
        "addr:housenumber": "6",
        "addr:postcode": "60200",
        "addr:street": "Hrnčířská",
        "amenity": "restaurant",
        "capacity": "130",
        "check_date": "2023-05-03",
        "check_date:opening_hours": "2022-07-20",
        "cuisine": "italian;pasta;pizza",
        "diet:vegetarian": "yes",
        "email": "info@pizzaalcapone.cz",
        "name": "Pizzeria Al Capone",
        "opening_hours": "Mo-Su 11:00-23:30",
        "outdoor_seating": "yes",
        "phone": "+420 541 210 555",
        "website": "https://www.pizzaalcapone.cz/brno/",
        "wheelchair": "yes"
      }
    },
    {
      "type": "node",
      "id": 584890017,
      "lat": 49.1915032,
      "lon": 16.610585,
      "tags": {
        "addr:city": "Brno",
        "addr:housenumber": "32",
        "addr:postcode": "60200",
        "addr:street": "Masarykova",
        "amenity": "fast_food",
        "brand": "McDonald's",
        "brand:wikidata": "Q38076",
        "brand:wikipedia": "en:McDonald's",
        "cuisine": "burger",
        "diet:vegetarian": "yes",
        "indoor_seating": "yes",
        "internet_access": "wlan",
        "name": "McDonald's",
        "opening_hours": "Mo-Sa 06:00-23:00; Su 08:00-23:00",
        "outdoor_seating": "no",
        "smoking": "no",
        "takeaway": "yes",
        "wheelchair": "yes"
      }
    },
    {
      "type": "node",
      "id": 584890022,
      "lat": 49.1917898,
      "lon": 16.6107821,
      "tags": {
        "addr:city": "Brno",
        "addr:housenumber": "31",
        "addr:postcode": "60200",
        "addr:street": "Masarykova",
        "amenity": "restaurant",
        "cuisine": "italian",
        "diet:vegetarian": "yes",
        "indoor_seating": "yes",
        "name": "Adria",
        "opening_hours": "Mo-Fr 07:00-24:00; Sa 07:30-24:00",
        "outdoor_seating": "sidewalk",
        "wheelchair": "no"
      }
    },
    {
      "type": "node",
      "id": 636090240,
      "lat": 49.1947358,
      "lon": 16.607922,
      "tags": {
        "addr:city": "Brno",
        "addr:housenumber": "19",
        "addr:postcode": "60200",
        "addr:street": "náměstí Svobody",
        "amenity": "fast_food",
        "brand": "McDonald's",
        "brand:wikidata": "Q38076",
        "brand:wikipedia": "en:McDonald's",
        "cuisine": "burger",
        "diet:vegetarian": "yes",
        "indoor_seating": "yes",
        "name": "McDonald's",
        "opening_hours": "Mo-Su 07:00-22:00",
        "outdoor_seating": "no",
        "takeaway": "yes",
        "wheelchair": "yes"
      }
    },
    {
      "type": "node",
      "id": 1168857294,
      "lat": 49.1694001,
      "lon": 16.7268835,
      "tags": {
        "amenity": "cafe",
        "cuisine": "ice_cream",
        "diet:vegetarian": "yes",
        "internet_access": "no",
        "internet_access:fee": "no",
        "name": "Cukrárna",
        "opening_hours": "Mo-Su 09:00-18:00",
        "smoking": "no"
      }
    },
    {
      "type": "node",
      "id": 1371469303,
      "lat": 49.2061208,
      "lon": 16.6025452,
      "tags": {
        "addr:city": "Brno",
        "addr:housenumber": "10",
        "addr:postcode": "60200",
        "addr:street": "Bayerova",
        "amenity": "restaurant",
        "contact:facebook": "https://www.facebook.com/restauracehoamai",
        "cuisine": "vietnamese",
        "diet:vegetarian": "yes",
        "internet_access": "wlan",
        "name": "Hoa Mai",
        "opening_hours": "Mo-Sa 11:00-23:00; Su 12:00-22:00",
        "outdoor_seating": "yes",
        "phone": "+420 530 346 490",
        "smoking": "no",
        "wheelchair": "yes"
      }
    },
    {
      "type": "node",
      "id": 1371469308,
      "lat": 49.206219,
      "lon": 16.6024915,
      "tags": {
        "addr:city": "Brno",
        "addr:housenumber": "10",
        "addr:postcode": "60200",
        "addr:street": "Bayerova",
        "amenity": "restaurant",
        "check_date": "2023-06-12",
        "cuisine": "asian",
        "diet:vegan": "yes",
        "diet:vegetarian": "yes",
        "name": "ZO",
        "wheelchair": "limited"
      }
    },
    {
      "type": "node",
      "id": 1385613648,
      "lat": 49.1996298,
      "lon": 16.5980485,
      "tags": {
        "addr:city": "Brno",
        "addr:housenumber": "10",
        "addr:postcode": "60200",
        "addr:street": "Obilní trh",
        "amenity": "restaurant",
        "check_date:opening_hours": "2022-07-01",
        "cuisine": "regional",
        "diet:vegan": "no",
        "diet:vegetarian": "yes",
        "internet_access": "wlan",
        "name": "Pivnice U Čápa",
        "opening_hours": "Mo-Su 11:00-24:00",
        "outdoor_seating": "yes",
        "phone": "+420 541 210 189",
        "smoking": "isolated",
        "takeaway": "no",
        "wheelchair": "no"
      }
    },
    {
      "type": "node",
      "id": 1486367772,
      "lat": 49.1975991,
      "lon": 16.6049926,
      "tags": {
        "amenity": "cafe",
        "diet:vegan": "yes",
        "diet:vegetarian": "yes",
        "indoor_seating": "no",
        "internet_access": "no",
        "name": "Kofi Kofi",
        "opening_hours": "Mo-Fr 06:00-20:30; Sa 09:00-17:00",
        "outdoor_seating": "no",
        "takeaway": "only",
        "website": "http://www.kofikofi.cz/",
        "wheelchair": "yes"
      }
    },
    {
      "type": "node",
      "id": 1494789738,
      "lat": 49.1971831,
      "lon": 16.6012107,
      "tags": {
        "addr:city": "Brno",
        "addr:housenumber": "14",
        "addr:postcode": "60200",
        "addr:street": "Marešova",
        "amenity": "restaurant",
        "check_date:opening_hours": "2022-09-02",
        "cuisine": "asian",
        "diet:vegan": "yes",
        "diet:vegetarian": "yes",
        "name": "Zlatá miska",
        "opening_hours": "Mo-Sa 11:00-22:00; Su 11:00-21:00",
        "wheelchair": "no"
      }
    },
    {
      "type": "node",
      "id": 1514441113,
      "lat": 49.2014417,
      "lon": 16.6105621,
      "tags": {
        "addr:city": "Brno",
        "addr:housenumber": "13",
        "addr:postcode": "60200",
        "addr:street": "třída Kpt. Jaroše",
        "amenity": "restaurant",
        "check_date": "2022-10-23",
        "check_date:opening_hours": "2021-04-01",
        "cuisine": "indian",
        "diet:vegan": "limited",
        "diet:vegetarian": "yes",
        "name": "India Thali",
        "opening_hours": "Mo-Fr 11:00-15:00,17:00-22:00; Sa 17:00-22:00",
        "outdoor_seating": "yes",
        "wheelchair": "no"
      }
    },
    {
      "type": "node",
      "id": 1514496114,
      "lat": 49.2018649,
      "lon": 16.6120342,
      "tags": {
        "addr:city": "Brno",
        "addr:housenumber": "5",
        "addr:postcode": "60200",
        "addr:street": "Kudelova",
        "amenity": "restaurant",
        "cuisine": "american;burger;steak_house",
        "diet:vegetarian": "yes",
        "internet_access": "wlan",
        "name": "U Starýho Billa",
        "opening_hours": "Mo-Fr 11:30-00:00; Sa 12:00-00:00; Su 12:00-22:00",
        "smoking": "no",
        "takeaway": "yes",
        "website": "http://www.bill.cz/",
        "wheelchair": "no"
      }
    },
    {
      "type": "node",
      "id": 1526309789,
      "lat": 49.2119821,
      "lon": 16.5784675,
      "tags": {
        "addr:city": "Brno",
        "addr:housenumber": "5",
        "addr:postcode": "61600",
        "addr:street": "Burianovo náměstí",
        "amenity": "restaurant",
        "diet:vegetarian": "yes",
        "name": "Restaurace Za Kapličkou",
        "opening_hours": "Mo-Sa 11:00-23:00; Su 11:00-22:00",
        "wheelchair": "no"
      }
    },
    {
      "type": "node",
      "id": 1537175115,
      "lat": 49.193702,
      "lon": 16.6089006,
      "tags": {
        "addr:city": "Brno",
        "addr:housenumber": "1",
        "addr:postcode": "60200",
        "addr:street": "Panská",
        "amenity": "fast_food",
        "cuisine": "kebab",
        "diet:vegetarian": "yes",
        "name": "The Foodhouse",
        "opening_hours:signed": "no",
        "wheelchair": "limited"
      }
    },
    {
      "type": "node",
      "id": 1607779200,
      "lat": 49.2206034,
      "lon": 16.5972626,
      "tags": {
        "addr:city": "Brno",
        "addr:housenumber": "14",
        "addr:postcode": "61200",
        "addr:street": "Veleslavínova",
        "amenity": "restaurant",
        "check_date:opening_hours": "2023-06-30",
        "cuisine": "indian;lebanese",
        "diet:vegan": "yes",
        "diet:vegetarian": "yes",
        "internet_access": "wlan",
        "name": "Klub cestovatelů",
        "opening_hours": "Mo-Th 11:00-23:00; Fr 11:00-24:00; Sa 12:00-24:00; Su 12:00-22:00",
        "operator": "Anexe public relations",
        "phone": "+420 774 048 589",
        "smoking": "no",
        "takeaway": "yes",
        "website": "https://www.klubcestovatelu.cz/",
        "wheelchair": "no"
      }
    },
    {
      "type": "node",
      "id": 1611767989,
      "lat": 49.2244409,
      "lon": 16.5902086,
      "tags": {
        "addr:city": "Brno",
        "addr:housenumber": "2",
        "addr:postcode": "61200",
        "addr:street": "Tyršova",
        "amenity": "restaurant",
        "check_date:opening_hours": "2022-07-01",
        "cuisine": "indian;nepalese",
        "diet:vegetarian": "yes",
        "internet_access": "wlan",
        "name": "Nepal",
        "opening_hours": "Mo-Fr 11:00-22:00; Sa 12:00-22:00; Su off",
        "payment:credit_cards": "yes",
        "payment:debit_cards": "yes",
        "phone": "+420 774 687 219",
        "smoking": "no",
        "website": "http://nepalbrno.cz/",
        "wheelchair": "no"
      }
    },
    {
      "type": "node",
      "id": 1611767993,
      "lat": 49.2213892,
      "lon": 16.5855453,
      "tags": {
        "amenity": "fast_food",
        "cuisine": "kebab",
        "diet:vegetarian": "yes",
        "indoor_seating": "no",
        "name": "Roj Kebab",
        "opening_hours": "Mo,Tu,Th 10:00-23:00; We,Fr,Sa 10:00-24:00; Su 11:00-22:00",
        "outdoor_seating": "no",
        "payment:visa": "yes",
        "takeaway": "only",
        "wheelchair": "yes"
      }
    },
    {
      "type": "node",
      "id": 1612063561,
      "lat": 49.2209179,
      "lon": 16.5844221,
      "tags": {
        "addr:city": "Brno",
        "addr:housenumber": "35g",
        "addr:postcode": "61200",
        "addr:street": "Purkyňova",
        "amenity": "restaurant",
        "cuisine": "vietnamese",
        "diet:vegetarian": "yes",
        "indoor_seating": "yes",
        "name": "Chilli Tree",
        "opening_hours:signed": "no",
        "outdoor_seating": "parklet",
        "phone": "+420 608 626 666",
        "website": "http://www.chillitreevn.com",
        "wheelchair": "limited"
      }
    },
    {
      "type": "node",
      "id": 1612493945,
      "lat": 49.1968122,
      "lon": 16.6007375,
      "tags": {
        "addr:city": "Brno",
        "addr:housenumber": "15",
        "addr:postcode": "60200",
        "addr:street": "Údolní",
        "amenity": "cafe",
        "diet:vegetarian": "yes",
        "internet_access": "wlan",
        "name": "Café Mezzanine",
        "opening_hours": "Mo-Fr 07:00-23:00; Sa-Su 10:00-22:00",
        "wheelchair": "no"
      }
    },
    {
      "type": "node",
      "id": 1614708354,
      "lat": 49.2011002,
      "lon": 16.6001037,
      "tags": {
        "amenity": "fast_food",
        "check_date:opening_hours": "2023-04-24",
        "contact:facebook": "https://www.facebook.com/KebapBrno",
        "cuisine": "kebab",
        "diet:vegan": "yes",
        "diet:vegetarian": "yes",
        "email": "bestkebapp@gmail.com",
        "indoor_seating": "yes",
        "name": "Best Kebap",
        "opening_hours": "Mo-Fr 11:00-22:00; Sa 11:00-22:00",
        "outdoor_seating": "no",
        "payment:credit_cards": "yes",
        "payment:debit_cards": "yes",
        "payment:maestro": "yes",
        "payment:mastercard": "yes",
        "payment:visa": "yes",
        "payment:visa_debit": "yes",
        "payment:visa_electron": "yes",
        "phone": "+420 608 555 494",
        "wheelchair": "no"
      }
    },
    {
      "type": "node",
      "id": 1614708473,
      "lat": 49.2009474,
      "lon": 16.6003261,
      "tags": {
        "addr:city": "Brno",
        "addr:housenumber": "34",
        "addr:postcode": "60200",
        "addr:street": "Veveří",
        "amenity": "restaurant",
        "cuisine": "oriental",
        "diet:vegan": "yes",
        "diet:vegetarian": "yes",
        "email": "info@siwaorient.cz",
        "indoor_seating": "yes",
        "name": "SIWA Orient Grill",
        "opening_hours": "Mo-Fr 11:00-15:00,18:00-23:00; Sa 12:00-23:00",
        "operator": "orient",
        "outdoor_seating": "sidewalk",
        "payment:credit_cards": "yes",
        "payment:debit_cards": "yes",
        "payment:maestro": "yes",
        "payment:mastercard": "yes",
        "payment:visa": "yes",
        "payment:visa_debit": "yes",
        "payment:visa_electron": "yes",
        "phone": "+420 515 544 362",
        "source": "survey",
        "website": "http://www.siwaorient.cz/",
        "wheelchair": "no"
      }
    },
    {
      "type": "node",
      "id": 1647884109,
      "lat": 49.1890251,
      "lon": 16.6063912,
      "tags": {
        "addr:city": "Brno",
        "addr:housenumber": "13",
        "addr:postcode": "60200",
        "addr:street": "Hybešova",
        "amenity": "restaurant",
        "cuisine": "czech",
        "diet:vegetarian": "yes",
        "name": "U Emila",
        "opening_hours": "Mo-Fr 08:00-23:00; Sa 10:00-17:00",
        "phone": "+420515547071",
        "wheelchair": "no"
      }
    },
    {
      "type": "node",
      "id": 1802122120,
      "lat": 48.8498639,
      "lon": 16.8914262,
      "tags": {
        "addr:conscriptionnumber": "382",
        "addr:housenumber": "382",
        "addr:place": "Velké Bílovice",
        "addr:postcode": "69102",
        "addr:street": "nám. Osvoboditelů",
        "amenity": "restaurant",
        "cuisine": "regional;coffee_shop",
        "diet:gluten_free": "yes",
        "diet:vegetarian": "yes",
        "name": "Restaurace U Hroznu",
        "opening_hours": "Mo-Su 10:00-22:00",
        "ref:ruian:addr": "10139915",
        "website": "https://uhroznu.cz/"
      }
    },
    {
      "type": "node",
      "id": 1895791088,
      "lat": 49.1953952,
      "lon": 16.6112202,
      "tags": {
        "addr:city": "Brno",
        "addr:housenumber": "15",
        "addr:postcode": "60200",
        "addr:street": "Kobližná",
        "amenity": "fast_food",
        "diet:vegetarian": "yes",
        "name": "Big Food Point",
        "opening_hours": "24/7",
        "wheelchair": "yes"
      }
    },
    {
      "type": "node",
      "id": 1925175856,
      "lat": 49.2215458,
      "lon": 16.5963825,
      "tags": {
        "addr:city": "Brno",
        "addr:housenumber": "54",
        "addr:postcode": "61200",
        "addr:street": "Palackého třída",
        "amenity": "fast_food",
        "cuisine": "burger",
        "delivery": "yes",
        "diet:vegetarian": "yes",
        "name": "Brutus",
        "opening_hours": "24/7",
        "opening_hours:url": "http://www.obcerstvenibrutus.cz/provozovny",
        "phone": "+420 608 332 281",
        "takeaway": "yes",
        "website": "http://www.obcerstvenibrutus.cz/",
        "wheelchair": "limited"
      }
    },
    {
      "type": "node",
      "id": 2173043957,
      "lat": 49.2226846,
      "lon": 16.5846348,
      "tags": {
        "addr:city": "Brno",
        "addr:country": "CZ",
        "addr:postcode": "61200",
        "addr:street": "Purkyňova",
        "addr:streetnumber": "80",
        "amenity": "restaurant",
        "check_date:opening_hours": "2022-08-25",
        "contact:email": "info@napurkynce.cz",
        "diet:vegetarian": "yes",
        "internet_access": "wlan",
        "internet_access:fee": "no",
        "name": "Na Purkyňce",
        "opening_hours": "Mo-Sa 11:00-24:00; Su off",
        "outdoor_seating": "no",
        "phone": "+420 530340995",
        "reservation": "yes",
        "smoking": "isolated",
        "takeaway": "yes",
        "website": "http://www.napurkynce.cz",
        "wheelchair": "no"
      }
    },
    {
      "type": "node",
      "id": 2213112183,
      "lat": 49.1927975,
      "lon": 16.6096883,
      "tags": {
        "addr:city": "Brno",
        "addr:housenumber": "1",
        "addr:postcode": "60200",
        "addr:street": "Zelný trh",
        "amenity": "fast_food",
        "brand": "Subway",
        "brand:wikidata": "Q244457",
        "brand:wikipedia": "en:Subway (restaurant)",
        "check_date:currency:XBT": "2023-01-26",
        "cuisine": "sandwich",
        "currency:XBT": "yes",
        "delivery": "yes",
        "diet:vegetarian": "yes",
        "name": "Subway",
        "opening_hours": "Mo-Fr 08:00-22:00; Sa,Su 09:00-22:00",
        "payment:onchain": "yes",
        "smoking": "no",
        "takeaway": "yes",
        "website": "https://www.sendvice.com/",
        "wheelchair": "no"
      }
    },
    {
      "type": "node",
      "id": 2249407728,
      "lat": 49.1954517,
      "lon": 16.6099376,
      "tags": {
        "addr:city": "Brno",
        "addr:housenumber": "5",
        "addr:postcode": "60200",
        "addr:street": "Kobližná",
        "amenity": "restaurant",
        "check_date:opening_hours": "2020-09-29",
        "cuisine": "indian",
        "diet:vegetarian": "yes",
        "internet_access": "wlan",
        "name": "Veselá čajovna",
        "opening_hours": "Mo-Su 11:00-24:00",
        "outdoor_seating": "yes",
        "phone": "+420 542 212 719",
        "takeaway": "yes",
        "website": "http://www.veselacajovna.cz/",
        "wheelchair": "no"
      }
    },
    {
      "type": "node",
      "id": 2257940938,
      "lat": 49.1955678,
      "lon": 16.6065147,
      "tags": {
        "addr:city": "Brno",
        "addr:housenumber": "5",
        "addr:postcode": "60200",
        "addr:street": "Česká",
        "amenity": "restaurant",
        "cuisine": "regional",
        "diet:vegetarian": "yes",
        "indoor_seating": "yes",
        "name": "Stopkova plzeňská pivnice",
        "opening_hours": "Mo-Su 11:00-24:00",
        "outdoor_seating": "pedestrian_zone",
        "phone": "+420 517 070 080",
        "reservation": "recommended",
        "website": "https://www.kolkovna.cz/",
        "wheelchair": "limited",
        "wikidata": "Q21809707"
      }
    },
    {
      "type": "node",
      "id": 2322362203,
      "lat": 49.1989646,
      "lon": 16.6000859,
      "tags": {
        "addr:city": "Brno",
        "addr:housenumber": "17",
        "addr:postcode": "60200",
        "addr:street": "Jaselská",
        "amenity": "cafe",
        "amenity_1": "pub",
        "diet:vegetarian": "yes",
        "internet_access": "yes",
        "name": "Limbo",
        "opening_hours": "Mo-Th 09:00-23:00; Fr 09:00-24:00; Su 16:00-23:00",
        "wheelchair": "no"
      }
    },
    {
      "type": "node",
      "id": 2333138783,
      "lat": 49.195234,
      "lon": 16.6103328,
      "tags": {
        "addr:city": "Brno",
        "addr:housenumber": "8",
        "addr:postcode": "60200",
        "addr:street": "Kobližná",
        "amenity": "restaurant",
        "contact:facebook": "https://www.facebook.com/viettambrno",
        "contact:instagram": "https://www.instagram.com/viettambrno/",
        "cuisine": "vietnamese",
        "delivery": "yes",
        "diet:vegan": "yes",
        "name": "Viet Tam",
        "opening_hours": "Mo-Su 10:30-21:00",
        "phone": "+420 725 637 235",
        "website": "https://www.viettam.cz/"
      }
    },
    {
      "type": "node",
      "id": 2451609644,
      "lat": 49.1974499,
      "lon": 16.6058952,
      "tags": {
        "addr:city": "Brno",
        "addr:housenumber": "3",
        "addr:postcode": "60200",
        "addr:street": "Joštova",
        "amenity": "fast_food",
        "diet:vegetarian": "yes",
        "name": "Hot Dog",
        "opening_hours": "24/7",
        "takeaway": "only",
        "wheelchair": "yes"
      }
    },
    {
      "type": "node",
      "id": 2487478366,
      "lat": 49.1908708,
      "lon": 16.6039455,
      "tags": {
        "addr:city": "Brno",
        "addr:housenumber": "21",
        "addr:postcode": "60200",
        "addr:street": "Kopečná",
        "amenity": "cafe",
        "check_date": "2023-01-28",
        "diet:vegetarian": "yes",
        "internet_access": "wlan",
        "name": "Flexaret",
        "opening_hours": "Mo-Su 13:00-23:30",
        "outdoor_seating": "yes",
        "payment:cards": "no",
        "phone": "+420 530 341 628",
        "smoking": "no",
        "wheelchair": "no"
      }
    },
    {
      "type": "node",
      "id": 2770900428,
      "lat": 49.1893386,
      "lon": 16.6029599,
      "tags": {
        "addr:city": "Brno",
        "addr:housenumber": "30",
        "addr:postcode": "60200",
        "addr:street": "Hybešova",
        "amenity": "fast_food",
        "cuisine": "kebab",
        "diet:vegetarian": "yes",
        "level": "0",
        "name": "Turecký kebab",
        "outdoor_seating": "yes",
        "takeaway": "yes",
        "toilets": "no",
        "wheelchair": "limited"
      }
    },
    {
      "type": "node",
      "id": 2805580190,
      "lat": 49.2043318,
      "lon": 16.6084917,
      "tags": {
        "addr:city": "Brno",
        "addr:housenumber": "4a",
        "addr:postcode": "60200",
        "addr:street": "Lužánecká",
        "amenity": "cafe",
        "cuisine": "regional",
        "diet:vegetarian": "yes",
        "internet_access": "wlan",
        "name": "Park Lane",
        "opening_hours": "Mo-Fr 07:30-22:00; Sa 08:00-20:00",
        "smoking": "no",
        "website": "http://www.parklanecafe.cz/"
      }
    },
    {
      "type": "node",
      "id": 2815481532,
      "lat": 49.1970797,
      "lon": 16.6122616,
      "tags": {
        "addr:city": "Brno",
        "addr:housenumber": "9",
        "addr:postcode": "60200",
        "addr:street": "Rooseveltova",
        "amenity": "restaurant",
        "diet:vegan": "yes",
        "diet:vegetarian": "yes",
        "name": "Fabrik Urban House",
        "opening_hours": "Mo-Th 08:00-22:00; Fr 08:00-23:00; Sa 10:00-22:00; Su 10:00-21:00",
        "wheelchair": "no"
      }
    },
    {
      "type": "node",
      "id": 2816946248,
      "lat": 49.2141794,
      "lon": 16.623335,
      "tags": {
        "addr:city": "Brno",
        "addr:housenumber": "40",
        "addr:postcode": "61300",
        "addr:street": "Provazníkova",
        "amenity": "fast_food",
        "diet:vegan": "yes",
        "diet:vegetarian": "yes",
        "indoor_seating": "yes",
        "name": "Pizzerie U Montyho",
        "opening_hours:signed": "no",
        "outdoor_seating": "no",
        "phone": "+420 736 621 591",
        "website": "http://www.pizzerieumontyho.cz/",
        "wheelchair": "no"
      }
    },
    {
      "type": "node",
      "id": 2916543710,
      "lat": 49.1936156,
      "lon": 16.6095409,
      "tags": {
        "addr:city": "Brno",
        "addr:housenumber": "7",
        "addr:postcode": "60200",
        "addr:street": "Masarykova",
        "amenity": "fast_food",
        "brand": "Bageterie Boulevard",
        "brand:wikidata": "Q10859823",
        "brand:wikipedia": "en:Bageterie Boulevard",
        "cuisine": "sandwich",
        "diet:vegetarian": "yes",
        "indoor_seating": "yes",
        "name": "Bageterie Boulevard",
        "opening_hours": "Mo-Su 07:00-22:00",
        "operator": "Bageterie Boulevard",
        "outdoor_seating": "no",
        "takeaway": "yes",
        "website": "https://www.bb.cz",
        "wheelchair": "no"
      }
    },
    {
      "type": "node",
      "id": 3098348684,
      "lat": 49.1998261,
      "lon": 16.5966001,
      "tags": {
        "addr:city": "Brno",
        "addr:housenumber": "1a",
        "addr:postcode": "60200",
        "addr:street": "Jiráskova",
        "amenity": "cafe",
        "cuisine": "dessert",
        "diet:raw": "yes",
        "diet:vegan": "yes",
        "diet:vegetarian": "yes",
        "name": "Tutti Frutti",
        "opening_hours": "Mo-Su 10:00-18:00",
        "phone": "+420722944536",
        "website": "https://cukrarna-tutti-frutti.webnode.cz/",
        "wheelchair": "limited"
      }
    },
    {
      "type": "node",
      "id": 3098671162,
      "lat": 49.2169724,
      "lon": 16.5991492,
      "tags": {
        "addr:city": "Brno",
        "addr:housenumber": "78",
        "addr:postcode": "61200",
        "addr:street": "Štefánikova",
        "amenity": "restaurant",
        "diet:vegan": "yes",
        "diet:vegetarian": "yes",
        "name": "Má hostina",
        "opening_hours": "Mo-Su 11:00-20:00",
        "outdoor_seating": "no",
        "wheelchair": "no"
      }
    },
    {
      "type": "node",
      "id": 3099390085,
      "lat": 49.1918203,
      "lon": 16.6127044,
      "tags": {
        "amenity": "fast_food",
        "diet:vegetarian": "yes",
        "level": "0",
        "name": "Sun Food",
        "wheelchair": "yes"
      }
    },
    {
      "type": "node",
      "id": 3099390086,
      "lat": 49.191877,
      "lon": 16.6124445,
      "tags": {
        "amenity": "fast_food",
        "diet:vegan": "yes",
        "diet:vegetarian": "yes",
        "indoor_seating": "no",
        "level": "0",
        "name": "Bamboo",
        "opening_hours": "Mo-Su 07:00-24:00",
        "outdoor_seating": "no",
        "takeaway": "only",
        "wheelchair": "yes"
      }
    },
    {
      "type": "node",
      "id": 3152747857,
      "lat": 49.2080408,
      "lon": 16.604367,
      "tags": {
        "addr:city": "Brno",
        "addr:housenumber": "4",
        "addr:postcode": "60200",
        "addr:street": "Štefánikova",
        "amenity": "fast_food",
        "cuisine": "gyros",
        "diet:vegetarian": "yes",
        "email": "tavernaathenabrno@gmail.com",
        "name": "Gyros Taverna Athena",
        "opening_hours": "Mo-Fr 10:30-24:00; Sa 11:00-24:00",
        "payment:credit_cards": "yes",
        "phone": "+420 608 613 565",
        "website": "http://tavernaathena.cz",
        "wheelchair": "no"
      }
    },
    {
      "type": "node",
      "id": 3156028165,
      "lat": 49.2205113,
      "lon": 16.5871535,
      "tags": {
        "addr:city": "Brno",
        "addr:housenumber": "81",
        "addr:postcode": "61200",
        "addr:street": "Svatopluka Čecha",
        "amenity": "restaurant",
        "check_date:opening_hours": "2022-06-08",
        "contact:facebook": "100086457531132",
        "cuisine": "curry;indian",
        "diet:vegetarian": "yes",
        "email": "royalnepalbrno2022@gmail.com",
        "name": "Royal Nepal",
        "opening_hours": "Mo-Su 11:00-22:00",
        "phone": "+420 773 782 075",
        "website": "https://www.royalnepal.cz/",
        "wheelchair": "no"
      }
    },
    {
      "type": "node",
      "id": 3156109237,
      "lat": 49.2074038,
      "lon": 16.6021335,
      "tags": {
        "addr:city": "Brno",
        "addr:housenumber": "39",
        "addr:postcode": "60200",
        "addr:street": "Kotlářská",
        "amenity": "fast_food",
        "cuisine": "burger;kebab;pizza",
        "diet:vegetarian": "yes",
        "name": "OKA bistro",
        "opening_hours": "Mo-Sa 10:30-22:00",
        "wheelchair": "no"
      }
    },
    {
      "type": "node",
      "id": 3156946990,
      "lat": 49.1946729,
      "lon": 16.6127875,
      "tags": {
        "addr:city": "Brno",
        "addr:housenumber": "4",
        "addr:postcode": "60200",
        "addr:street": "Novobranská",
        "amenity": "restaurant",
        "cuisine": "italian",
        "diet:vegetarian": "yes",
        "internet_access": "wlan",
        "name": "Castellana trattoria",
        "opening_hours": "Mo-Fr 11:00-23:00; Sa 12:00-22:00",
        "website": "https://www.castellana.cz/",
        "wheelchair": "no"
      }
    },
    {
      "type": "node",
      "id": 3157717966,
      "lat": 49.2031433,
      "lon": 16.596854,
      "tags": {
        "addr:city": "Brno",
        "addr:housenumber": "57",
        "addr:postcode": "60200",
        "addr:street": "Veveří",
        "amenity": "restaurant",
        "cuisine": "burger",
        "diet:vegetarian": "yes",
        "indoor_seating": "yes",
        "internet_access": "wlan",
        "name": "The Immigrant",
        "opening_hours": "Mo-Th 11:00-23:00; Fr-Sa 12:00-02:00, Su 12:00-23:00",
        "outdoor_seating": "yes",
        "phone": "+420 792 202 231",
        "website": "https://www.theimmigrant.cz/",
        "wheelchair": "no"
      }
    },
    {
      "type": "node",
      "id": 3157724319,
      "lat": 49.2105506,
      "lon": 16.586793,
      "tags": {
        "addr:city": "Brno",
        "addr:housenumber": "2",
        "addr:postcode": "61600",
        "addr:street": "Minská",
        "amenity": "cafe",
        "check_date:opening_hours": "2022-09-12",
        "diet:vegetarian": "yes",
        "name": "Cukrářství Bukovský",
        "opening_hours": "Mo-Su 09:00-20:00",
        "phone": "+420 777476797",
        "wheelchair": "no"
      }
    },
    {
      "type": "node",
      "id": 3157738558,
      "lat": 49.2108405,
      "lon": 16.5854425,
      "tags": {
        "addr:city": "Brno",
        "addr:housenumber": "14",
        "addr:postcode": "61600",
        "addr:street": "Minská",
        "amenity": "cafe",
        "check_date:opening_hours": "2020-09-23",
        "diet:vegetarian": "yes",
        "name": "Le Petit cafe",
        "opening_hours": "Mo-Fr 08:00-22:00; Sa,Su 14:00-22:00",
        "wheelchair": "yes"
      }
    },
    {
      "type": "node",
      "id": 3157743562,
      "lat": 49.2110403,
      "lon": 16.583156,
      "tags": {
        "addr:city": "Brno",
        "addr:housenumber": "1",
        "addr:postcode": "61600",
        "addr:street": "Králova",
        "amenity": "restaurant",
        "cuisine": "pizza",
        "diet:vegetarian": "yes",
        "name": "Viva",
        "opening_hours": "Mo-Th 11:00-22:30; Fr 11:00-23:00; Sa 12:00-22:30",
        "phone": "+420 736 163 494",
        "website": "https://pizzerie-viva.cz/"
      }
    },
    {
      "type": "node",
      "id": 3157743563,
      "lat": 49.2116676,
      "lon": 16.5827081,
      "tags": {
        "addr:city": "Brno",
        "addr:housenumber": "52",
        "addr:postcode": "61600",
        "addr:street": "Minská",
        "amenity": "cafe",
        "check_date:opening_hours": "2021-08-09",
        "diet:vegetarian": "yes",
        "internet_access": "wlan",
        "name": "Cukrárna Bali",
        "opening_hours": "Mo-Fr 10:00-18:00; Sa,Su 14:00-18:00",
        "phone": "+420 737 259 001",
        "website": "http://www.cukrarna-bali.cz",
        "wheelchair": "no"
      }
    },
    {
      "type": "node",
      "id": 3159165865,
      "lat": 49.1944509,
      "lon": 16.6083313,
      "tags": {
        "addr:city": "Brno",
        "addr:housenumber": "18",
        "addr:postcode": "60200",
        "addr:street": "náměstí Svobody",
        "amenity": "restaurant",
        "diet:vegetarian": "yes",
        "email": "info@pellegrini.cz",
        "indoor_seating": "yes",
        "internet_access": "wlan",
        "name": "Pellegrini",
        "opening_hours": "Mo-Su 09:00-23:00",
        "outdoor_seating": "yes",
        "phone": "+420 542 210 822",
        "website": "http://www.cafe-cocktailbar-pizzeria.cz/",
        "wheelchair": "yes"
      }
    },
    {
      "type": "node",
      "id": 3159165866,
      "lat": 49.1943978,
      "lon": 16.6077042,
      "tags": {
        "addr:city": "Brno",
        "addr:housenumber": "1",
        "addr:postcode": "60200",
        "addr:street": "Zámečnická",
        "amenity": "restaurant",
        "cuisine": "regional",
        "diet:vegetarian": "yes",
        "name": "NOK NOK Restaurant",
        "opening_hours": "Mo-Tu 11:00-23:00; We-Th 11:00-24:00; Fr-Sa 11:00-01:00, Su 11:00-22:00",
        "phone": "+420 513 035 030",
        "website": "https://www.noknokrestaurant.cz/",
        "wheelchair": "limited"
      }
    },
    {
      "type": "node",
      "id": 3159184015,
      "lat": 49.1968907,
      "lon": 16.6054975,
      "tags": {
        "addr:city": "Brno",
        "addr:housenumber": "25",
        "addr:postcode": "60200",
        "addr:street": "Česká",
        "diet:vegetarian": "yes",
        "indoor_seating": "yes",
        "name": "Diana",
        "opening_hours": "Mo-Su 09:30-18:00",
        "outdoor_seating": "no",
        "shop": "pastry",
        "wheelchair": "limited"
      }
    },
    {
      "type": "node",
      "id": 3159225472,
      "lat": 49.1913429,
      "lon": 16.6116589,
      "tags": {
        "addr:city": "Brno",
        "addr:housenumber": "8",
        "addr:postcode": "60200",
        "addr:street": "Nádražní",
        "amenity": "restaurant",
        "cuisine": "indian;nepalese",
        "diet:vegetarian": "yes",
        "indoor_seating": "yes",
        "name": "The Himalaya",
        "opening_hours": "Mo-Fr 11:00-22:00; Sa 12:00-22:00",
        "outdoor_seating": "no",
        "phone": "+420 777 404 124",
        "website": "http://www.himalayarestaurace.cz",
        "wheelchair": "no"
      }
    },
    {
      "type": "node",
      "id": 3159225476,
      "lat": 49.1917025,
      "lon": 16.6111264,
      "tags": {
        "addr:city": "Brno",
        "addr:housenumber": "25",
        "addr:postcode": "60200",
        "addr:street": "Josefská",
        "amenity": "restaurant",
        "cuisine": "asian;sushi",
        "diet:vegetarian": "yes",
        "indoor_seating": "yes",
        "internet_access": "wlan",
        "name": "TaiWan Bento",
        "opening_hours": "Mo-Su 11:00-22:00",
        "outdoor_seating": "sidewalk",
        "phone": "+420 542 210 503",
        "smoking": "no",
        "wheelchair": "limited"
      }
    },
    {
      "type": "node",
      "id": 3159240515,
      "lat": 49.1926575,
      "lon": 16.6104348,
      "tags": {
        "addr:city": "Brno",
        "addr:housenumber": "25",
        "addr:postcode": "60200",
        "addr:street": "Masarykova",
        "amenity": "fast_food",
        "cuisine": "kebab",
        "diet:vegetarian": "yes",
        "indoor_seating": "no",
        "name": "Turecký kebap",
        "opening_hours": "Mo,Tu 09:00-01:00, We 09:00-04:00, Th 09:00-01:00, Fr,Sa 09:00-04:00, Su 01:00-24:00",
        "outdoor_seating": "no",
        "takeaway": "only",
        "wheelchair": "yes"
      }
    },
    {
      "type": "node",
      "id": 3159240517,
      "lat": 49.1927475,
      "lon": 16.6095819,
      "tags": {
        "amenity": "cafe",
        "check_date": "2023-02-05",
        "check_date:opening_hours": "2020-12-14",
        "diet:vegetarian": "yes",
        "internet_access": "wlan",
        "name": "Cosmopolis Café",
        "opening_hours": "Mo-Su 08:00-23:00",
        "outdoor_seating": "yes",
        "payment:cards": "yes",
        "payment:contactless": "yes",
        "phone": "+420 542 106 080",
        "wheelchair": "yes"
      }
    },
    {
      "type": "node",
      "id": 3160933284,
      "lat": 49.1559014,
      "lon": 16.627346,
      "tags": {
        "amenity": "fast_food",
        "brand": "IKEA",
        "brand:wikidata": "Q54078",
        "brand:wikipedia": "en:IKEA",
        "cuisine": "swedish",
        "diet:pescetarian": "yes",
        "diet:vegetarian": "yes",
        "kids_area": "yes",
        "kids_area:indoor": "yes",
        "name": "IKEA Restaurant",
        "name:ru": "Ресторан ИКЕА",
        "opening_hours": "Mo-Su 10:00-19:30",
        "takeaway": "yes"
      }
    },
    {
      "type": "node",
      "id": 3163520277,
      "lat": 49.1958818,
      "lon": 16.6123983,
      "tags": {
        "addr:city": "Brno",
        "addr:housenumber": "2",
        "addr:postcode": "60200",
        "addr:street": "Sukova",
        "amenity": "cafe",
        "diet:vegan": "yes",
        "diet:vegetarian": "yes",
        "internet_access": "wlan",
        "name": "Jedna báseň",
        "opening_hours": "Mo-Th 08:00-23:00; Fr 08:00-01:00, Sa 11:30-24:00; Su 11:30-23:00",
        "outdoor_seating": "yes",
        "phone": "+420 542 211 444",
        "website": "http://www.jedna-basen.cz/",
        "wheelchair": "no"
      }
    },
    {
      "type": "node",
      "id": 3191329839,
      "lat": 49.1970322,
      "lon": 16.6061301,
      "tags": {
        "addr:city": "Brno",
        "addr:housenumber": "6",
        "addr:postcode": "60200",
        "addr:street": "Solniční",
        "amenity": "fast_food",
        "diet:halal": "yes",
        "diet:vegan": "yes",
        "diet:vegetarian": "yes",
        "name": "ABÍR arabská kuchyně",
        "opening_hours": "Mo 10:00-20:00; Tu-Fr 09:00-20:00",
        "phone": "+420 777 170 910",
        "shop": "convenience",
        "takeaway": "yes",
        "wheelchair": "yes"
      }
    },
    {
      "type": "node",
      "id": 3191349082,
      "lat": 49.1970208,
      "lon": 16.6008569,
      "tags": {
        "addr:city": "Brno",
        "addr:housenumber": "4",
        "addr:postcode": "60200",
        "addr:street": "Údolní",
        "amenity": "restaurant",
        "check_date:opening_hours": "2022-10-23",
        "cuisine": "pizza;burger;italian",
        "diet:vegan": "yes",
        "diet:vegetarian": "yes",
        "internet_access": "wlan",
        "name": "La Famiglia",
        "opening_hours": "Mo-Sa 11:00-23:00; Su 11:00-22:00",
        "takeaway": "yes",
        "website": "https://www.lafamigliabrno.cz",
        "wheelchair": "no"
      }
    },
    {
      "type": "node",
      "id": 3191349085,
      "lat": 49.1979147,
      "lon": 16.6021578,
      "tags": {
        "addr:city": "Brno",
        "addr:housenumber": "2",
        "addr:postcode": "60200",
        "addr:street": "Jaselská",
        "amenity": "restaurant",
        "cuisine": "burger",
        "diet:vegan": "yes",
        "diet:vegetarian": "yes",
        "internet_access": "wlan",
        "internet_access:fee": "yes",
        "name": "East Village",
        "opening_hours": "Mo-Fr 10:00-02:00, Sa 11:00-02:00, Su 11:00-01:00",
        "phone": "+420 608 193 627",
        "website": "https://www.eastvillage.cz/",
        "wheelchair": "no"
      }
    },
    {
      "type": "node",
      "id": 3216608109,
      "lat": 49.2101131,
      "lon": 16.603186,
      "tags": {
        "addr:city": "Brno",
        "addr:housenumber": "26",
        "addr:postcode": "60200",
        "addr:street": "Štefánikova",
        "amenity": "fast_food",
        "check_date:opening_hours": "2023-05-18",
        "cuisine": "burger;pizza",
        "diet:vegetarian": "yes",
        "name": "Obelix",
        "opening_hours": "Mo-Sa 10:00-03:00, Su 10:00-23:00",
        "wheelchair": "limited"
      }
    },
    {
      "type": "node",
      "id": 3220460505,
      "lat": 49.1970601,
      "lon": 16.6102475,
      "tags": {
        "addr:city": "Brno",
        "addr:housenumber": "7",
        "addr:street": "Jezuitská",
        "amenity": "restaurant",
        "cuisine": "international",
        "diet:vegetarian": "yes",
        "name": "Soul Bistro",
        "opening_hours": "Mo-Th 08:00-22:00; Fr 08:00-23:00; Sa 10:00-23:00",
        "phone": "+420 773 179 212",
        "wheelchair": "no"
      }
    },
    {
      "type": "node",
      "id": 3221039427,
      "lat": 49.2240212,
      "lon": 16.5935157,
      "tags": {
        "addr:city": "Brno",
        "addr:housenumber": "8",
        "addr:postcode": "61200",
        "addr:street": "Husitská",
        "amenity": "cafe",
        "diet:vegetarian": "yes",
        "name": "Buon Giorno",
        "opening_hours": "Mo,Tu,Th,Fr 08:00-17:30; We 08:00-19:00; Sa 09:00-12:00",
        "wheelchair": "no"
      }
    },
    {
      "type": "node",
      "id": 3221039438,
      "lat": 49.2235675,
      "lon": 16.5934728,
      "tags": {
        "addr:city": "Brno",
        "addr:housenumber": "9",
        "addr:postcode": "61200",
        "addr:street": "Husitská",
        "amenity": "fast_food",
        "check_date:opening_hours": "2020-09-24",
        "cuisine": "pizza",
        "diet:vegetarian": "yes",
        "name": "Omega Pizza",
        "opening_hours": "Mo-Th 10:00-22:00; Fr-Su 10:00-23:00",
        "wheelchair": "no"
      }
    },
    {
      "type": "node",
      "id": 3243017872,
      "lat": 49.1922579,
      "lon": 16.6122453,
      "tags": {
        "addr:city": "Brno",
        "addr:housenumber": "14",
        "addr:postcode": "60200",
        "addr:street": "Josefská",
        "amenity": "restaurant",
        "cuisine": "indian",
        "diet:vegetarian": "yes",
        "name": "Annapurna",
        "opening_hours": "Mo-Fr 11:00-23:00; Sa,Su 12:00-23:00",
        "outdoor_seating": "no",
        "phone": "+420 776 024 396",
        "takeaway": "yes",
        "website": "http://www.indicka-restaurace-annapurna.cz/",
        "wheelchair": "no"
      }
    },
    {
      "type": "node",
      "id": 3253626431,
      "lat": 49.2113228,
      "lon": 16.6019074,
      "tags": {
        "addr:city": "Brno",
        "addr:housenumber": "35",
        "addr:postcode": "60200",
        "addr:street": "Štefánikova",
        "amenity": "restaurant",
        "check_date:opening_hours": "2022-12-23",
        "cuisine": "indian",
        "diet:vegetarian": "yes",
        "name": "Light of India",
        "opening_hours": "Mo-Fr 10:30-22:30; Sa-Su 11:30-22:30",
        "website": "http://lightofindia.cz/",
        "wheelchair": "no"
      }
    },
    {
      "type": "node",
      "id": 3283640058,
      "lat": 49.2110817,
      "lon": 16.5836165,
      "tags": {
        "addr:city": "Brno",
        "addr:housenumber": "41",
        "addr:postcode": "61600",
        "addr:street": "Minská",
        "amenity": "cafe",
        "diet:vegetarian": "yes",
        "name": "Kavárna U Mlsných koček",
        "opening_hours": "Mo-Th 10:00-21:00; Fr 10:00-22:00; Sa 17:00-22:00",
        "wheelchair": "no"
      }
    },
    {
      "type": "node",
      "id": 3384075884,
      "lat": 49.1952266,
      "lon": 16.6106,
      "tags": {
        "addr:city": "Brno",
        "addr:housenumber": "9",
        "addr:postcode": "60200",
        "addr:street": "Kobližná",
        "amenity": "fast_food",
        "diet:vegetarian": "yes",
        "name": "Big Food Point",
        "opening_hours": "24/7",
        "wheelchair": "yes"
      }
    },
    {
      "type": "node",
      "id": 3384077116,
      "lat": 49.1948721,
      "lon": 16.6138037,
      "tags": {
        "addr:city": "Brno",
        "addr:housenumber": "6",
        "addr:postcode": "60200",
        "addr:street": "Divadelní",
        "amenity": "fast_food",
        "cuisine": "asian",
        "diet:vegetarian": "yes",
        "internet_access": "wlan",
        "internet_access:fee": "customers",
        "internet_access:ssid": "PHO VIET",
        "name": "Pho Viet nam",
        "opening_hours": "Mo-Fr 10:00-22:00; Su 11:00-22:00",
        "wheelchair": "limited"
      }
    },
    {
      "type": "node",
      "id": 3384130449,
      "lat": 49.1941189,
      "lon": 16.6108044,
      "tags": {
        "addr:city": "Brno",
        "addr:housenumber": "4",
        "addr:postcode": "60200",
        "addr:street": "Minoritská",
        "amenity": "cafe",
        "diet:vegetarian": "yes",
        "indoor_seating": "yes",
        "internet_access": "wlan",
        "name": "Café Placzek",
        "opening_hours": "Mo-Su 08:00-20:00",
        "outdoor_seating": "pedestrian_zone",
        "phone": "+420 602 205 555",
        "smoking": "no",
        "website": "http://www.cafeplaczek.cz/",
        "wheelchair": "limited"
      }
    },
    {
      "type": "node",
      "id": 3389127488,
      "lat": 49.1928398,
      "lon": 16.60996,
      "tags": {
        "addr:city": "Brno",
        "addr:housenumber": "12",
        "addr:postcode": "60200",
        "addr:street": "Masarykova",
        "amenity": "fast_food",
        "cuisine": "pizza",
        "diet:vegetarian": "yes",
        "indoor_seating": "no",
        "name": "Pizza Hot",
        "opening_hours": "Mo-Sa 09:00-24:00, Su 10:00-20:00",
        "outdoor_seating": "no",
        "takeaway": "only",
        "wheelchair": "no"
      }
    },
    {
      "type": "node",
      "id": 3389141164,
      "lat": 49.1913946,
      "lon": 16.6108023,
      "tags": {
        "addr:city": "Brno",
        "addr:housenumber": "34",
        "addr:postcode": "60200",
        "addr:street": "Masarykova",
        "amenity": "fast_food",
        "cuisine": "pasta",
        "diet:vegetarian": "yes",
        "name": "Pasta di gusto",
        "opening_hours": "Mo-Fr 10:00-20:00; Sa,Su 11:00-20:00",
        "wheelchair": "no"
      }
    },
    {
      "type": "node",
      "id": 3389155402,
      "lat": 49.1917451,
      "lon": 16.6115171,
      "tags": {
        "addr:city": "Brno",
        "addr:housenumber": "21",
        "addr:postcode": "60200",
        "addr:street": "Josefská",
        "amenity": "restaurant",
        "diet:vegetarian": "yes",
        "indoor_seating": "yes",
        "internet_access": "wlan",
        "name": "Vale",
        "opening_hours": "Mo-Su 08:00-19:00",
        "outdoor_seating": "sidewalk",
        "phone": "+420 542 212 752",
        "smoking": "no",
        "takeaway": "no",
        "website": "http://www.ladolcevita-aida.cz/",
        "wheelchair": "yes"
      }
    },
    {
      "type": "node",
      "id": 3389155409,
      "lat": 49.1921638,
      "lon": 16.6122373,
      "tags": {
        "addr:city": "Brno",
        "addr:housenumber": "14",
        "addr:postcode": "60200",
        "addr:street": "Josefská",
        "amenity": "cafe",
        "brand": "Costa",
        "brand:wikidata": "Q608845",
        "brand:wikipedia": "en:Costa Coffee",
        "check_date": "2022-09-16",
        "check_date:opening_hours": "2020-09-21",
        "cuisine": "coffee_shop",
        "diet:vegetarian": "yes",
        "drive_through": "yes",
        "indoor_seating": "yes",
        "internet_access": "wlan",
        "internet_access:fee": "customers",
        "name": "Costa",
        "opening_hours": "Mo-Fr 07:00-21:00; Sa-Su 08:00-20:00",
        "outdoor_seating": "no",
        "payment:credit_cards": "yes",
        "payment:maestro": "yes",
        "payment:mastercard": "yes",
        "payment:visa": "yes",
        "payment:visa_debit": "yes",
        "payment:visa_electron": "yes",
        "smoking": "no",
        "takeaway": "yes",
        "website": "http://www.costa-coffee.cz/",
        "wheelchair": "no"
      }
    },
    {
      "type": "node",
      "id": 3389594272,
      "lat": 49.1914826,
      "lon": 16.6110182,
      "tags": {
        "addr:city": "Brno",
        "addr:housenumber": "33",
        "addr:postcode": "60200",
        "addr:street": "Masarykova",
        "amenity": "fast_food",
        "diet:vegetarian": "yes",
        "indoor_seating": "no",
        "name": "Big Food Point",
        "opening_hours": "24/7",
        "outdoor_seating": "no",
        "takeaway": "only",
        "wheelchair": "limited"
      }
    },
    {
      "type": "node",
      "id": 3390996340,
      "lat": 49.1923891,
      "lon": 16.6067043,
      "tags": {
        "addr:city": "Brno",
        "addr:housenumber": "13",
        "addr:postcode": "60200",
        "addr:street": "Starobrněnská",
        "amenity": "fast_food",
        "diet:vegetarian": "yes",
        "indoor_seating": "no",
        "name": "TrdloCafé",
        "opening_hours:signed": "no",
        "outdoor_seating": "no",
        "takeaway": "only",
        "wheelchair": "yes"
      }
    },
    {
      "type": "node",
      "id": 3467187412,
      "lat": 49.1955303,
      "lon": 16.6084577,
      "tags": {
        "addr:city": "Brno",
        "addr:housenumber": "5",
        "addr:postcode": "60200",
        "addr:street": "náměstí Svobody",
        "amenity": "restaurant",
        "cuisine": "regional",
        "diet:vegetarian": "yes",
        "internet_access": "wlan",
        "name": "Zlatá loď",
        "opening_hours": "Mo-Th 11:00-24:00, Fr 11:00-01:00, Sa 11:30-01:00, Su 11:30-23:00",
        "outdoor_seating": "yes",
        "phone": "+420 778 420 000",
        "website": "http://www.zlatalod.com/",
        "wheelchair": "yes"
      }
    },
    {
      "type": "node",
      "id": 3467239997,
      "lat": 49.1942773,
      "lon": 16.6098459,
      "tags": {
        "addr:city": "Brno",
        "addr:housenumber": "9",
        "addr:postcode": "60200",
        "addr:street": "Jánská",
        "amenity": "restaurant",
        "cuisine": "sushi",
        "diet:vegetarian": "yes",
        "internet_access": "wlan",
        "name": "Wang Running Sushi",
        "opening_hours": "Mo-Su 11:00-23:00",
        "phone": "+420 543 210 749",
        "wheelchair": "yes"
      }
    },
    {
      "type": "node",
      "id": 3467240005,
      "lat": 49.1937067,
      "lon": 16.6113332,
      "tags": {
        "addr:city": "Brno",
        "addr:housenumber": "12",
        "addr:postcode": "60200",
        "addr:street": "Minoritská",
        "amenity": "fast_food",
        "cuisine": "kebab;falafel",
        "diet:vegetarian": "yes",
        "name": "The House of Kebab"
      }
    },
    {
      "type": "node",
      "id": 3498314545,
      "lat": 49.1955276,
      "lon": 16.6075364,
      "tags": {
        "addr:city": "Brno",
        "addr:housenumber": "3",
        "addr:postcode": "60200",
        "addr:street": "náměstí Svobody",
        "amenity": "restaurant",
        "cuisine": "regional;grill",
        "diet:vegetarian": "yes",
        "internet_access": "wlan",
        "name": "Štatl",
        "opening_hours": "Mo-Th 11:00-24:00, Fr 11:00-01:00, Sa 12:00-01:00",
        "phone": "+420 702 018 730",
        "takeaway": "no",
        "website": "http://www.statlbrno.cz/",
        "wheelchair": "yes"
      }
    },
    {
      "type": "node",
      "id": 3505137763,
      "lat": 49.190579,
      "lon": 16.5939745,
      "tags": {
        "addr:city": "Brno",
        "addr:housenumber": "18",
        "addr:postcode": "60300",
        "addr:street": "Mendlovo náměstí",
        "amenity": "cafe",
        "check_date:opening_hours": "2023-06-24",
        "diet:gluten_free": "yes",
        "diet:raw": "yes",
        "diet:vegan": "yes",
        "diet:vegetarian": "yes",
        "name": "Tutti Frutti",
        "opening_hours": "Mo-Fr 06:30-18:30; Sa-Su 09:00-18:00",
        "phone": "+420 727 965 707",
        "website": "https://www.tuttifrutti.cz/"
      }
    },
    {
      "type": "node",
      "id": 3660667044,
      "lat": 49.197785,
      "lon": 16.605617,
      "tags": {
        "addr:city": "Brno",
        "addr:housenumber": "6",
        "addr:postcode": "60200",
        "addr:street": "Joštova",
        "amenity": "fast_food",
        "cuisine": "turkish",
        "diet:vegetarian": "yes",
        "name": "Azeri Döner Kebab",
        "opening_hours": "24/7",
        "source": "survey",
        "takeaway": "only",
        "wheelchair": "no"
      }
    },
    {
      "type": "node",
      "id": 3716741798,
      "lat": 49.2106309,
      "lon": 16.5864364,
      "tags": {
        "addr:city": "Brno",
        "addr:housenumber": "4",
        "addr:postcode": "61600",
        "addr:street": "Minská",
        "amenity": "fast_food",
        "cuisine": "pizza;burger;salad;chinese",
        "delivery": "yes",
        "diet:vegetarian": "yes",
        "drive_through": "no",
        "name": "Maníkovo bistro",
        "opening_hours": "Mo-Th 10:00-23:00; Fr-Sa 10:00-24:00; Su 10:00-23:00",
        "operator": "Chachar Catering s.r.o.",
        "takeaway": "yes",
        "website": "https://www.manikova-pizza.cz/",
        "wheelchair": "no"
      }
    },
    {
      "type": "node",
      "id": 3720075129,
      "lat": 49.1922385,
      "lon": 16.6023888,
      "tags": {
        "addr:city": "Brno",
        "addr:housenumber": "18",
        "addr:postcode": "60200",
        "addr:street": "Pekařská",
        "amenity": "fast_food",
        "check_date:opening_hours": "2022-12-13",
        "cuisine": "italian_pizza",
        "diet:vegetarian": "yes",
        "name": "Fresh Pasta",
        "opening_hours": "Mo-Fr 10:30-15:00",
        "wheelchair": "yes"
      }
    },
    {
      "type": "node",
      "id": 3840679539,
      "lat": 49.1668706,
      "lon": 16.7261891,
      "tags": {
        "amenity": "cafe",
        "check_date": "2023-02-25",
        "cuisine": "ice_cream",
        "diet:vegetarian": "yes",
        "internet_access": "wlan",
        "internet_access:fee": "no",
        "name": "Cukrárna Cupák",
        "opening_hours": "Mo-Su 10:00-18:00",
        "outdoor_seating": "no",
        "smoking": "no",
        "wheelchair": "limited"
      }
    },
    {
      "type": "node",
      "id": 3858559457,
      "lat": 49.2058516,
      "lon": 16.6027092,
      "tags": {
        "addr:city": "Brno",
        "addr:housenumber": "6",
        "addr:postcode": "60200",
        "addr:street": "Bayerova",
        "amenity": "restaurant",
        "cuisine": "italian_pizza;pasta",
        "diet:vegetarian": "yes",
        "name": "Caruso Pizza",
        "opening_hours": "Mo-Th 10:00-22:00; Fr-Sa 10:00-22:30",
        "phone": "+420 720 388 307",
        "website": "https://www.carusopizza.cz/",
        "wheelchair": "no"
      }
    },
    {
      "type": "node",
      "id": 3873203753,
      "lat": 49.1923677,
      "lon": 16.6122082,
      "tags": {
        "amenity": "fast_food",
        "diet:vegetarian": "yes",
        "name": "Sklizeno.cz - hladové okno",
        "opening_hours": "Mo-Fr 08:00-18:00; Sa 09:00-15:00",
        "wheelchair": "no"
      }
    },
    {
      "type": "node",
      "id": 3899801095,
      "lat": 49.1958728,
      "lon": 16.6094489,
      "tags": {
        "addr:city": "Brno",
        "addr:housenumber": "3",
        "addr:postcode": "60200",
        "addr:street": "Kozí",
        "amenity": "restaurant",
        "cuisine": "regional",
        "diet:vegetarian": "yes",
        "email": "ucaipla@ambi.cz",
        "internet_access": "wlan",
        "name": "Lokál U Caipla",
        "opening_hours": "Mo-Sa 11:00-24:00; Su 11:00-22:00",
        "phone": "+420 731 594 671",
        "website": "http://lokal-ucaipla.ambi.cz/",
        "wheelchair": "yes"
      }
    },
    {
      "type": "node",
      "id": 3929613034,
      "lat": 49.2163115,
      "lon": 16.6275301,
      "tags": {
        "amenity": "fast_food",
        "cuisine": "kebab",
        "diet:vegetarian": "yes",
        "drive_through": "no",
        "name": "Roj Kebab",
        "payment:cash": "yes"
      }
    },
    {
      "type": "node",
      "id": 3987013005,
      "lat": 49.1955326,
      "lon": 16.6082684,
      "tags": {
        "addr:city": "Brno",
        "addr:housenumber": "5",
        "addr:postcode": "60200",
        "addr:street": "náměstí Svobody",
        "amenity": "cafe",
        "brand": "Starbucks",
        "brand:wikidata": "Q37158",
        "brand:wikipedia": "en:Starbucks",
        "cuisine": "coffee_shop",
        "diet:vegetarian": "yes",
        "indoor_seating": "yes",
        "internet_access": "wlan",
        "name": "Starbucks",
        "official_name": "Starbucks Coffee",
        "opening_hours": "Mo-Fr 07:00-22:00; Sa,Su 08:00-22:00",
        "outdoor_seating": "pedestrian_zone",
        "phone": "+420 727 946 501",
        "takeaway": "yes",
        "website": "http://www.starbuckscoffee.cz/",
        "wheelchair": "limited"
      }
    },
    {
      "type": "node",
      "id": 4031417230,
      "lat": 49.2034974,
      "lon": 16.6102094,
      "tags": {
        "addr:city": "Brno",
        "addr:housenumber": "37a",
        "addr:postcode": "60200",
        "addr:street": "třída Kpt. Jaroše",
        "amenity": "cafe",
        "check_date:opening_hours": "2022-07-19",
        "diet:vegan": "yes",
        "diet:vegetarian": "yes",
        "internet_access": "wlan",
        "name": "Kočičí kavárna Pelíšek",
        "opening_hours": "Mo-Fr 10:00-21:00; Sa-Su 13:00-19:00",
        "outdoor_seating": "yes",
        "payment:maestro": "yes",
        "payment:mastercard": "yes",
        "payment:visa": "yes",
        "payment:visa_debit": "yes",
        "payment:visa_electron": "yes",
        "phone": "+420 773 500 640",
        "takeaway": "yes",
        "website": "http://kocicipelisek.cz/",
        "wheelchair": "yes"
      }
    },
    {
      "type": "node",
      "id": 4180626909,
      "lat": 49.200987,
      "lon": 16.6002541,
      "tags": {
        "addr:city": "Brno",
        "addr:housenumber": "339/34",
        "addr:postcode": "60200",
        "addr:street": "Veveří",
        "amenity": "restaurant",
        "cuisine": "vietnamese",
        "diet:vegan": "yes",
        "diet:vegetarian": "yes",
        "indoor_seating": "yes",
        "name": "Oh! Pho",
        "opening_hours": "Mo-Sa 11:00-22:00; Su 12:00-20:00",
        "outdoor_seating": "sidewalk",
        "payment:credit_cards": "yes",
        "payment:debit_cards": "yes",
        "website": "http://www.ohphobrno.g6.cz/",
        "wheelchair": "no"
      }
    },
    {
      "type": "node",
      "id": 4199057389,
      "lat": 49.1931201,
      "lon": 16.6105696,
      "tags": {
        "addr:city": "Brno",
        "addr:housenumber": "6",
        "addr:postcode": "60200",
        "addr:street": "Orlí",
        "amenity": "restaurant",
        "cuisine": "thai",
        "diet:vegan": "yes",
        "diet:vegetarian": "yes",
        "indoor_seating": "yes",
        "internet_access": "wlan",
        "name": "Singha",
        "opening_hours": "Mo-Sa 11:00-20:00",
        "outdoor_seating": "yes",
        "smoking": "no",
        "wheelchair": "yes"
      }
    },
    {
      "type": "node",
      "id": 4225418835,
      "lat": 49.1946303,
      "lon": 16.6081105,
      "tags": {
        "amenity": "fast_food",
        "check_date": "2023-01-08",
        "cuisine": "salad",
        "diet:vegetarian": "yes",
        "drive_through": "no",
        "indoor_seating": "yes",
        "name": "Ugova salaterie",
        "opening_hours": "Mo-Fr 08:00-18:00; Sa,Su 10:00-18:00",
        "outdoor_seating": "no",
        "payment:cards": "yes",
        "payment:contactless": "yes",
        "takeaway": "yes",
        "website": "http://www.ugo.cz/",
        "wheelchair": "limited"
      }
    },
    {
      "type": "node",
      "id": 4225418836,
      "lat": 49.1959019,
      "lon": 16.6090385,
      "tags": {
        "addr:city": "Brno",
        "addr:housenumber": "4",
        "addr:postcode": "60200",
        "addr:street": "Běhounská",
        "amenity": "restaurant",
        "check_date:opening_hours": "2022-01-15",
        "cuisine": "vietnamese",
        "diet:vegan": "yes",
        "diet:vegetarian": "yes",
        "name": "Gỗ Brno",
        "opening_hours": "Mo-Su 11:00-22:00",
        "outdoor_seating": "yes",
        "phone": "+420 720 021 575",
        "wheelchair": "limited"
      }
    },
    {
      "type": "node",
      "id": 4231856489,
      "lat": 49.2049064,
      "lon": 16.6101276,
      "tags": {
        "amenity": "pub",
        "contact:email": "info@ponava.cafe",
        "contact:phone": "+420 739519650",
        "description": "Vege Bio lokal",
        "diet:vegan": "yes",
        "diet:vegetarian": "yes",
        "internet_access": "wlan",
        "name": "Ponava",
        "opening_hours": "Mo-Sa 15:00-23:00; Su 13:00-18:00",
        "organic": "yes",
        "outdoor_seating": "yes",
        "smoking": "outside",
        "website": "http://ponava.cafe",
        "wheelchair": "limited"
      }
    },
    {
      "type": "node",
      "id": 4296800076,
      "lat": 49.2150894,
      "lon": 16.5818601,
      "tags": {
        "amenity": "restaurant",
        "diet:vegetarian": "yes",
        "level": "0",
        "name": "La Corrida",
        "opening_hours": "Mo-Th 11:00-23:00; Fr 11:00-23:30; Sa,Su 11:00-23:00",
        "toilets:wheelchair": "limited",
        "wheelchair": "yes",
        "wheelchair:description": "Prahy ok. WC není zvlášť se speciálním vybavením, ale přesto relativně prostorné."
      }
    },
    {
      "type": "node",
      "id": 4354548484,
      "lat": 49.192094,
      "lon": 16.6093599,
      "tags": {
        "addr:city": "Brno",
        "addr:housenumber": "4",
        "addr:postcode": "60200",
        "addr:street": "Zelný trh",
        "amenity": "restaurant",
        "contact:website": "https://efihostinec.cz/zelnak/",
        "cuisine": "regional",
        "diet:vegetarian": "yes",
        "indoor_seating": "yes",
        "level": "0",
        "microbrewery": "yes",
        "name": "Efi pivovar",
        "opening_hours": "Mo-Fr 11:00-24:00, Sa-Su 10:00-24:00",
        "operator": "EFI Hostinec",
        "outdoor_seating": "yes",
        "phone": "+420 601 150 000",
        "smoking": "outside",
        "toilets": "yes",
        "toilets:access": "yes",
        "toilets:wheelchair": "limited",
        "wheelchair": "yes"
      }
    },
    {
      "type": "node",
      "id": 4391809540,
      "lat": 49.1961254,
      "lon": 16.6093882,
      "tags": {
        "addr:city": "Brno",
        "addr:housenumber": "5",
        "addr:postcode": "60200",
        "addr:street": "Kozí",
        "amenity": "restaurant",
        "cuisine": "greek",
        "diet:vegetarian": "yes",
        "internet_access": "wlan",
        "name": "Cosmopolis",
        "opening_hours": "Mo-We 11:00-23:00; Th-Sa 11:00-24:00; Su 12:00-22:00",
        "phone": "+420530328370",
        "takeaway": "yes",
        "wheelchair": "limited"
      }
    },
    {
      "type": "node",
      "id": 4674341426,
      "lat": 49.1913818,
      "lon": 16.6092594,
      "tags": {
        "addr:postcode": "60200",
        "addr:street": "Kapucínské náměstí",
        "amenity": "cafe",
        "diet:vegan": "yes",
        "diet:vegetarian": "yes",
        "internet_access": "wlan",
        "name": "Café Pilát",
        "opening_hours": "Mo-Su 08:00-00:00",
        "outdoor_seating": "yes",
        "phone": "+420 603 974 496"
      }
    },
    {
      "type": "node",
      "id": 4755966122,
      "lat": 48.856737,
      "lon": 16.0600265,
      "tags": {
        "addr:housenumber": "1",
        "addr:postcode": "66902",
        "addr:street": "Fischerova",
        "amenity": "fast_food",
        "cuisine": "pizza",
        "delivery": "yes",
        "diet:vegetarian": "yes",
        "name": "Pizza La Strada",
        "name:cs": "Pizza La Strada",
        "opening_hours": "Mo-Sa 14:00-22:00; Su 12:00-20:00",
        "takeaway": "yes",
        "wheelchair": "no"
      }
    },
    {
      "type": "node",
      "id": 4757745209,
      "lat": 49.1990659,
      "lon": 16.5999648,
      "tags": {
        "addr:city": "Brno",
        "addr:housenumber": "19",
        "addr:postcode": "60200",
        "addr:street": "Jaselská",
        "amenity": "cafe",
        "cuisine": "pancake",
        "diet:vegetarian": "yes",
        "name": "Panksy",
        "opening_hours": "Mo-Fr 09:00-23:00; Sa 10:00-23:00; Su 10:00-20:00",
        "wheelchair": "no"
      }
    },
    {
      "type": "node",
      "id": 4757745210,
      "lat": 49.1997442,
      "lon": 16.5986505,
      "tags": {
        "addr:city": "Brno",
        "addr:housenumber": "15",
        "addr:postcode": "60200",
        "addr:street": "Gorkého",
        "amenity": "restaurant",
        "check_date:opening_hours": "2022-07-01",
        "cuisine": "thai;vietnamese",
        "diet:vegan": "yes",
        "diet:vegetarian": "yes",
        "email": "info@suchibrno.cz",
        "internet_access": "wlan",
        "name": "Suchi",
        "opening_hours": "Mo-Fr 11:00-22:00",
        "phone": "+420 773 947 700",
        "smoking": "no",
        "takeaway": "yes",
        "website": "https://suchibrno.cz/",
        "wheelchair": "no"
      }
    },
    {
      "type": "node",
      "id": 4802919780,
      "lat": 49.2004353,
      "lon": 16.6228758,
      "tags": {
        "addr:city": "Brno",
        "addr:housenumber": "65",
        "addr:postcode": "60200",
        "addr:street": "Bratislavská",
        "amenity": "cafe",
        "contact:facebook": "https://www.facebook.com/cafeintheghetto/",
        "description": "jsme polyfunkční prostor alternativnějšího typu. jsme kavárna, bar, galerie, dílna, obchod",
        "diet:vegan": "yes",
        "diet:vegetarian": "yes",
        "internet_access": "yes",
        "internet_access:fee": "no",
        "internet_access:ssid": "CAFEINTHEGHETTO",
        "name": "Café In The Ghetto",
        "opening_hours": "Mo-Sa 16:00-22:22; Sa 18:00-22:22",
        "phone": "+420 725 965 570",
        "smoking": "outside"
      }
    },
    {
      "type": "node",
      "id": 4823302943,
      "lat": 49.1949771,
      "lon": 16.6101448,
      "tags": {
        "addr:city": "Brno",
        "addr:housenumber": "3",
        "addr:postcode": "60200",
        "addr:street": "Poštovská",
        "air_conditioning": "yes",
        "amenity": "pub",
        "diet:vegetarian": "yes",
        "food": "yes",
        "indoor_seating": "yes",
        "name": "Axiom Pub",
        "opening_hours": "Mo-Th 15:00-24:00, Fr 15:00-02:00, Sa 12:00-02:00, Su 14:00-23:00",
        "outdoor_seating": "pedestrian_zone",
        "smoking": "no",
        "wheelchair": "no"
      }
    },
    {
      "type": "node",
      "id": 5016994025,
      "lat": 49.1897393,
      "lon": 16.6140796,
      "tags": {
        "amenity": "fast_food",
        "diet:vegetarian": "yes",
        "name": "Sun Food",
        "opening_hours": "Mo-Su 09:00-21:00",
        "wheelchair": "limited"
      }
    },
    {
      "type": "node",
      "id": 5298329052,
      "lat": 49.1949336,
      "lon": 16.6075869,
      "tags": {
        "addr:city": "Brno",
        "addr:housenumber": "91/20",
        "addr:postcode": "60200",
        "addr:street": "náměstí Svobody",
        "amenity": "restaurant",
        "check_date:opening_hours": "2022-02-11",
        "cuisine": "vietnamese",
        "diet:vegetarian": "yes",
        "indoor_seating": "yes",
        "name": "Diandi",
        "opening_hours": "Mo-Su 11:00-22:00",
        "outdoor_seating": "no",
        "payment:maestro": "yes",
        "payment:mastercard": "yes",
        "payment:visa": "yes",
        "payment:visa_debit": "yes",
        "payment:visa_electron": "yes",
        "phone": "+420 774 222 963",
        "smoking": "no",
        "website": "http://diandi.cz",
        "wheelchair": "limited"
      }
    },
    {
      "type": "node",
      "id": 5303014551,
      "lat": 49.1917386,
      "lon": 16.6098013,
      "tags": {
        "addr:city": "Brno",
        "addr:housenumber": "11",
        "addr:postcode": "60200",
        "addr:street": "Kapucínské náměstí",
        "amenity": "cafe",
        "diet:vegetarian": "yes",
        "indoor_seating": "yes",
        "name": "Mada ice cream",
        "opening_hours": "Mo-Su 09:30-21:00",
        "outdoor_seating": "sidewalk",
        "wheelchair": "no"
      }
    },
    {
      "type": "node",
      "id": 5363094225,
      "lat": 49.2237001,
      "lon": 16.5939656,
      "tags": {
        "amenity": "restaurant",
        "check_date:opening_hours": "2021-11-01",
        "diet:vegetarian": "yes",
        "name": "Správné místo",
        "opening_hours": "Mo-Th 11:00-22:00; Fr 11:00-23:00; Sa 12:00-23:00; Su 12:00-21:00",
        "wheelchair": "no"
      }
    },
    {
      "type": "node",
      "id": 5416415840,
      "lat": 49.1993937,
      "lon": 16.602705,
      "tags": {
        "addr:city": "Brno",
        "addr:housenumber": "10",
        "addr:postcode": "60200",
        "addr:street": "Veveří",
        "amenity": "restaurant",
        "cuisine": "japanese;ramen",
        "diet:gluten_free": "yes",
        "diet:vegan": "yes",
        "diet:vegetarian": "yes",
        "name": "Shōyu",
        "opening_hours": "Mo-Th 11:00-21:00; Fr-Su 11:00-15:00",
        "phone": "+420 773661060",
        "website": "https://shoyu.cz/"
      }
    },
    {
      "type": "node",
      "id": 5461956676,
      "lat": 49.1952444,
      "lon": 16.6090382,
      "tags": {
        "addr:city": "Brno",
        "addr:conscriptionnumber": "71",
        "addr:housenumber": "71/2",
        "addr:postcode": "60200",
        "addr:street": "Kobližná",
        "addr:streetnumber": "2",
        "amenity": "cafe",
        "bar": "yes",
        "contact:instagram": "https://www.instagram.com/atelier_bistro/",
        "cuisine": "regional;coffee;wine",
        "diet:vegetarian": "yes",
        "email": "info@atelierbar.cz",
        "name": "Atelier Cocktail Bar & Bistro",
        "opening_hours": "Mo-Fr 11:00-21:00; Sa 12:00-21:00",
        "outdoor_seating": "yes",
        "payment:cash": "yes",
        "payment:mastercard": "yes",
        "payment:visa": "yes",
        "payment:visa_electron": "yes",
        "phone": "+420 739 401 086",
        "reservation": "yes",
        "source:addr": "uir_adr",
        "uir_adr:ADRESA_KOD": "19094108",
        "website": "http://www.atelierbar.cz/",
        "wheelchair": "yes"
      }
    },
    {
      "type": "node",
      "id": 5509464888,
      "lat": 49.1949378,
      "lon": 16.6071498,
      "tags": {
        "addr:city": "Brno",
        "addr:housenumber": "92/21",
        "addr:postcode": "60200",
        "addr:street": "náměstí Svobody",
        "amenity": "fast_food",
        "cuisine": "mexican",
        "diet:non-vegetarian": "yes",
        "diet:vegetarian": "yes",
        "name": "Bistro Bastardo",
        "opening_hours": "Mo-Fr 11:00-22:00,Sa-Su 12:00-22:00",
        "phone": "+420 605 454 040",
        "website": "https://www.facebook.com/bistrobastardo"
      }
    },
    {
      "type": "node",
      "id": 5645366621,
      "lat": 49.1909223,
      "lon": 16.6100787,
      "tags": {
        "addr:city": "Brno",
        "addr:housenumber": "414",
        "addr:postcode": "60200",
        "addr:street": "Bašty",
        "amenity": "fast_food",
        "cuisine": "hawaiian",
        "diet:vegan": "yes",
        "diet:vegetarian": "yes",
        "email": "info@pokecz.cz",
        "name": "Pokecz",
        "opening_hours": "Mo-Fr 11:00-21:00; Sa 12:00-20:00; Su 12:00-15:00",
        "phone": "+420 725 414 007",
        "takeaway": "yes",
        "website": "https://www.pokecz.cz/",
        "wheelchair": "no"
      }
    },
    {
      "type": "node",
      "id": 5981702415,
      "lat": 49.2057386,
      "lon": 16.5991838,
      "tags": {
        "amenity": "restaurant",
        "diet:halal": "no",
        "diet:kosher": "no",
        "diet:vegan": "yes",
        "diet:vegetarian": "yes",
        "name": "Restaurace Domov",
        "opening_hours": "Mo-Fr 16:00-22:00; Su 15:00-22:00",
        "outdoor_seating": "yes"
      }
    },
    {
      "type": "node",
      "id": 6000903541,
      "lat": 49.1939416,
      "lon": 16.6112952,
      "tags": {
        "amenity": "cafe",
        "check_date:opening_hours": "2021-08-12",
        "diet:vegetarian": "yes",
        "indoor_seating": "yes",
        "name": "Le Bon caffe",
        "opening_hours": "Mo-Sa 08:00-21:00; Su 09:00-20:00",
        "outdoor_seating": "pedestrian_zone",
        "payment:american_express": "yes",
        "payment:diners_club": "yes",
        "payment:discover_card": "yes",
        "payment:maestro": "yes",
        "payment:mastercard": "yes",
        "payment:visa": "yes",
        "payment:visa_debit": "yes",
        "payment:visa_electron": "yes",
        "wheelchair": "no"
      }
    },
    {
      "type": "node",
      "id": 6147610135,
      "lat": 49.1888573,
      "lon": 16.5986287,
      "tags": {
        "addr:housenumber": "226/2",
        "addr:street": "Václavská",
        "amenity": "cafe",
        "delivery": "no",
        "diet:vegan": "yes",
        "diet:vegetarian": "yes",
        "internet_access": "wlan",
        "internet_access:fee": "no",
        "name": "Ad Alta",
        "name:cs": "Kavárna Ad Alta",
        "opening_hours": "Mo-Fr 09:00-21:00; Sa 09:00-18:00",
        "smoking": "no",
        "wheelchair": "no"
      }
    },
    {
      "type": "node",
      "id": 6711950050,
      "lat": 49.2016881,
      "lon": 16.6372312,
      "tags": {
        "addr:city": "Brno",
        "addr:housenumber": "11",
        "addr:postcode": "61500",
        "addr:street": "Bubeníčkova",
        "amenity": "restaurant",
        "cuisine": "steak_house;italian",
        "diet:vegetarian": "yes",
        "internet_access": "wlan",
        "internet_access:ssid": "K1-FREEWIFI",
        "name": "Steak House K1",
        "outdoor_seating": "yes",
        "payment:cash": "yes",
        "phone": "+420 545 245 429"
      }
    },
    {
      "type": "node",
      "id": 7087007170,
      "lat": 49.1945203,
      "lon": 16.6089173,
      "tags": {
        "addr:city": "Brno",
        "addr:housenumber": "74/10",
        "addr:postcode": "60200",
        "addr:street": "náměstí Svobody",
        "air_conditioning": "yes",
        "amenity": "restaurant",
        "cuisine": "regional",
        "diet:vegetarian": "yes",
        "indoor_seating": "yes",
        "name": "U Mamlasů",
        "opening_hours": "Mo-Sa 11:00-01:00; Su 11:00-23:00",
        "outdoor_seating": "pedestrian_zone",
        "wheelchair": "yes"
      }
    },
    {
      "type": "node",
      "id": 7122777719,
      "lat": 49.2135511,
      "lon": 16.5747549,
      "tags": {
        "addr:city": "Brno",
        "addr:housenumber": "35",
        "addr:postcode": "61600",
        "addr:street": "Horova",
        "amenity": "restaurant",
        "contact:facebook": "https://www.facebook.com/profile.php?id=100052407085921",
        "cuisine": "vietnamese;sushi",
        "diet:vegetarian": "yes",
        "name": "Táo Viet Nam Home Cooking & Sushi Bar",
        "opening_hours": "Mo-Fr 11:00-22:00; Sa-Su 12:00-22:00",
        "wheelchair": "limited"
      }
    },
    {
      "type": "node",
      "id": 7226682907,
      "lat": 49.1914158,
      "lon": 16.6111296,
      "tags": {
        "amenity": "fast_food",
        "cuisine": "mexican",
        "diet:vegetarian": "yes",
        "indoor_seating": "yes",
        "name": "Taco Bonito",
        "opening_hours": "Mo-Fr 11:00-22:00; Sa,Su 11:00-20:00",
        "outdoor_seating": "no",
        "wheelchair": "limited"
      }
    },
    {
      "type": "node",
      "id": 7238278893,
      "lat": 49.1910867,
      "lon": 16.6128889,
      "tags": {
        "amenity": "fast_food",
        "check_date:opening_hours": "2021-07-01",
        "cuisine": "pasta",
        "diet:vegetarian": "yes",
        "indoor_seating": "yes",
        "name": "Spaghetti Parmigiano",
        "opening_hours": "Mo-Su 09:00-20:00",
        "outdoor_seating": "no",
        "wheelchair": "limited"
      }
    },
    {
      "type": "node",
      "id": 7315111201,
      "lat": 49.2027056,
      "lon": 16.613825,
      "tags": {
        "amenity": "fast_food",
        "diet:gluten_free": "yes",
        "diet:vegan": "yes",
        "diet:vegetarian": "yes",
        "email": "info@fabrik.cz",
        "name": "Fabrik food factory",
        "opening_hours": "Mo-Fr 09:00-21:00; Sa,Su 10:00-21:00",
        "payment:maestro": "yes",
        "payment:mastercard": "yes",
        "payment:visa": "yes",
        "payment:visa_debit": "yes",
        "payment:visa_electron": "yes",
        "phone": "+420 777 222 241",
        "website": "https://fabrik.cz/"
      }
    },
    {
      "type": "node",
      "id": 7704483630,
      "lat": 49.1908827,
      "lon": 16.6130357,
      "tags": {
        "amenity": "fast_food",
        "diet:vegetarian": "yes",
        "indoor_seating": "no",
        "name": "Trdlokafe",
        "opening_hours": "08:00-20:00",
        "opening_hours:signed": "no",
        "outdoor_seating": "no",
        "takeaway": "only",
        "wheelchair": "yes"
      }
    },
    {
      "type": "node",
      "id": 7723845933,
      "lat": 49.1907374,
      "lon": 16.612676,
      "tags": {
        "alt_name": "Oříšek",
        "amenity": "fast_food",
        "diet:vegetarian": "yes",
        "indoor_seating": "no",
        "name": "Ráj oříšků",
        "opening_hours": "Mo-Fr 08:00-20:00; Sa,Su 08:00-18:00",
        "outdoor_seating": "no",
        "payment:credit_cards": "yes",
        "payment:debit_cards": "yes",
        "takeaway": "only",
        "wheelchair": "yes"
      }
    },
    {
      "type": "node",
      "id": 7826700275,
      "lat": 49.2204695,
      "lon": 16.5857836,
      "tags": {
        "amenity": "cafe",
        "diet:vegetarian": "yes",
        "indoor_seating": "yes",
        "name": "Jadro",
        "opening_hours": "Mo-Fr 10:00-20:00; Su 13:00-18:00",
        "outdoor_seating": "sidewalk",
        "website": "https://www.jadrocafe.cz",
        "wheelchair": "no"
      }
    },
    {
      "type": "node",
      "id": 8415611808,
      "lat": 49.1992302,
      "lon": 16.6029747,
      "tags": {
        "amenity": "fast_food",
        "cuisine": "bagel",
        "diet:vegan": "yes",
        "diet:vegetarian": "yes",
        "name": "Celozrnná sváča",
        "takeaway": "yes",
        "wheelchair": "no"
      }
    },
    {
      "type": "node",
      "id": 8656401556,
      "lat": 49.1971711,
      "lon": 16.6052985,
      "tags": {
        "addr:city": "Brno",
        "addr:housenumber": "142/29",
        "addr:postcode": "60200",
        "addr:street": "Česká",
        "amenity": "fast_food",
        "brand": "Burger King",
        "brand:wikidata": "Q177054",
        "brand:wikipedia": "en:Burger King",
        "cuisine": "burger",
        "diet:vegetarian": "yes",
        "drive_through": "no",
        "name": "Burger King",
        "opening_hours": "Mo-Su 04:00-22:00",
        "operator": "burger",
        "takeaway": "yes",
        "wheelchair": "no"
      }
    },
    {
      "type": "node",
      "id": 8724984310,
      "lat": 49.1902136,
      "lon": 16.6104332,
      "tags": {
        "amenity": "fast_food",
        "cuisine": "pizza",
        "diet:vegetarian": "yes",
        "indoor_seating": "no",
        "name": "Don Alexo",
        "outdoor_seating": "no",
        "takeaway": "only"
      }
    },
    {
      "type": "node",
      "id": 8839776114,
      "lat": 49.191006,
      "lon": 16.6127243,
      "tags": {
        "amenity": "fast_food",
        "cuisine": "sandwich",
        "diet:vegetarian": "yes",
        "indoor_seating": "no",
        "name": "Food TIme",
        "opening_hours": "Mo-Fr 06:00-18:30; Sa,Su 07:00-18:00",
        "outdoor_seating": "no",
        "takeaway": "only",
        "wheelchair": "yes"
      }
    },
    {
      "type": "node",
      "id": 9156132437,
      "lat": 49.2095348,
      "lon": 16.6035232,
      "tags": {
        "addr:city": "Brno",
        "addr:housenumber": "20",
        "addr:postcode": "60200",
        "addr:street": "Štefánikova",
        "amenity": "fast_food",
        "cuisine": "mexican",
        "diet:non-vegetarian": "yes",
        "diet:vegetarian": "yes",
        "email": "bistrobastardo@gmail.com",
        "name": "Bistro Bastardo",
        "opening_hours": "Mo-Fr 11:00-22:00, Sa 12:00-22:00",
        "phone": "+420 605 454 040"
      }
    },
    {
      "type": "node",
      "id": 9159992217,
      "lat": 49.169181,
      "lon": 16.725314,
      "tags": {
        "amenity": "fast_food",
        "diet:vegan": "no",
        "diet:vegetarian": "yes",
        "name": "Pizza & Kebab Atip",
        "opening_hours": "Mo-Sa 09:00-21:00",
        "payment:credit_cards": "yes",
        "payment:debit_cards": "yes",
        "wheelchair": "no"
      }
    },
    {
      "type": "node",
      "id": 9263674083,
      "lat": 49.2016466,
      "lon": 16.6015849,
      "tags": {
        "amenity": "restaurant",
        "diet:kosher": "no",
        "diet:vegan": "no",
        "diet:vegetarian": "yes",
        "name": "Garden Food Concept",
        "opening_hours": "Mo-Sa 11:00-22:00"
      }
    },
    {
      "type": "node",
      "id": 9322163766,
      "lat": 49.2031476,
      "lon": 16.881796,
      "tags": {
        "amenity": "fast_food",
        "contact:email": "info@ilmondo.cz",
        "contact:mobile": "+420 777 585 686",
        "cuisine": "burger;pizza",
        "delivery": "yes",
        "diet:vegetarian": "yes",
        "name": "Il mondo",
        "opening_hours": "Mo-Su 11:00-21:45",
        "payment:american_express": "yes",
        "payment:diners_club": "yes",
        "payment:jcb": "yes",
        "payment:maestro": "yes",
        "payment:mastercard": "yes",
        "payment:visa": "yes",
        "payment:visa_debit": "yes",
        "payment:visa_electron": "yes",
        "takeaway": "yes",
        "website": "https://ilmondo.cz/rousinov/"
      }
    },
    {
      "type": "node",
      "id": 9632898838,
      "lat": 48.8544459,
      "lon": 16.0469793,
      "tags": {
        "addr:city": "Znojmo",
        "addr:country": "CZ",
        "addr:housenumber": "466/7",
        "addr:postcode": "66902",
        "addr:street": "Mikulášské náměstí",
        "amenity": "restaurant",
        "cuisine": "indian;asian;nepalese",
        "diet:vegan": "yes",
        "diet:vegetarian": "yes",
        "name": "OM - indická a nepálská restaurace",
        "opening_hours": "Mo-Sa 11:00-22:00; Su 11:00-21:00",
        "phone": "+420 731 947 236",
        "website": "http://www.om-indicka.cz"
      }
    },
    {
      "type": "node",
      "id": 10082219762,
      "lat": 49.1912767,
      "lon": 16.6132826,
      "tags": {
        "amenity": "fast_food",
        "contact:facebook": "https://www.facebook.com/mashbrobrno",
        "contact:instagram": "https://www.instagram.com/mashbro_cz/",
        "diet:fruitarian": "yes",
        "diet:gluten_free": "yes",
        "diet:raw": "yes",
        "diet:vegetarian": "yes",
        "email": "info@mashbro.cz",
        "name": "MASHBRO",
        "opening_hours": "06:00-19:00",
        "phone": "+420 733 388 692",
        "website": "https://www.mashbro.cz/"
      }
    },
    {
      "type": "node",
      "id": 10802668081,
      "lat": 49.1507207,
      "lon": 17.0035334,
      "tags": {
        "amenity": "restaurant",
        "cuisine": "burger;pizza",
        "diet:vegan": "limited",
        "diet:vegetarian": "yes",
        "email": "info@booburger.cz",
        "mobile": "+420 737 349 224",
        "name": "Boo burger",
        "opening_hours": "Mo 11:00-20:00; Tu-Th 11:00-22:00; Fr 11:00-24:00; Sa 00:00-01:00,11:00-24:00; Su 00:00-01:00,11:00-20:00",
        "payment:maestro": "yes",
        "payment:mastercard": "yes",
        "payment:visa": "yes",
        "payment:visa_debit": "yes",
        "payment:visa_electron": "yes",
        "website": "https://booburger.cz/"
      }
    },
    {
      "type": "node",
      "id": 10976239974,
      "lat": 48.9398538,
      "lon": 16.7350203,
      "tags": {
        "addr:city": "Hustopeče",
        "addr:housenumber": "465/18",
        "addr:postcode": "69301",
        "addr:street": "Bratislavská",
        "amenity": "restaurant",
        "contact:facebook": "https://www.facebook.com/profile.php?id=100063502782380",
        "cuisine": "kebab",
        "diet:meat": "yes",
        "diet:vegetarian": "yes",
        "name": "Dervis KEBAB",
        "opening_hours": "Mo 10:00-20:00; Tu-Th 10:00-22:00; Fr 10:00-20:00",
        "payment:cash": "yes",
        "payment:credit_cards": "yes",
        "payment:debit_cards": "yes",
        "phone": "+420 777 732 703",
        "toilets": "no"
      }
    }
  ]
}