{
  "elements": [
    {
      "type": "node",
      "id": 579645839,
      "lat": 49.2042898,
      "lon": 16.6082315,
      "tags": {
        "addr:city": "Brno",
        "addr:housenumber": "4",
        "addr:postcode": "60200",
        "addr:street": "Lužánecká",
        "amenity": "restaurant",
        "diet:vegan": "yes",
        "diet:vegetarian": "only",
        "name": "Haribol",
        "opening_hours": "Mo-Fr 11:00-15:00",
        "source": "cuzk:km",
        "website": "https://www.haribol.cz/"
      }
    },
    {
      "type": "node",
      "id": 603039641,
      "lat": 49.2003917,
      "lon": 16.6025416,
      "tags": {
        "addr:city": "Brno",
        "addr:housenumber": "10",
        "addr:postcode": "60200",
        "addr:street": "Slovákova",
        "amenity": "restaurant",
        "delivery": "yes",
        "diet:vegan": "yes",
        "diet:vegetarian": "only",
        "internet_access": "wlan",
        "internet_access:fee": "no",
        "name": "Vegalité",
        "opening_hours": "Mo-Fr 11:00-01:00, Sa 16:00-01:00; PH off",
        "smoking": "no",
        "takeaway": "yes",
        "website": "http://www.vegalite.cz/",
        "wheelchair": "no"
      }
    },
    {
      "type": "node",
      "id": 707989273,
      "lat": 49.1985219,
      "lon": 16.6007629,
      "tags": {
        "addr:city": "Brno",
        "addr:housenumber": "11",
        "addr:postcode": "60200",
        "addr:street": "Jaselská",
        "amenity": "restaurant",
        "diet:gluten_free": "yes",
        "diet:vegan": "yes",
        "diet:vegetarian": "only",
        "email": "restaurace@zzbrno.cz",
        "name": "Zdravý Život",
        "opening_hours": "Mo-Fr 08:00-18:00",
        "phone": "+420 549 211 081",
        "website": "http://www.zzbrno.cz/"
      }
    },
    {
      "type": "node",
      "id": 1323483185,
      "lat": 49.1940996,
      "lon": 16.6126594,
      "tags": {
        "addr:city": "Brno",
        "addr:housenumber": "26",
        "addr:postcode": "60200",
        "addr:street": "Orlí",
        "amenity": "restaurant",
        "diet:vegan": "yes",
        "diet:vegetarian": "only",
        "name": "Rebio",
        "opening_hours": "Mo-Fr 08:00-19:00; Sa 10:00-15:00",
        "smoking": "no",
        "website": "http://www.rebio.cz/",
        "wheelchair": "yes"
      }
    },
    {
      "type": "node",
      "id": 1634148105,
      "lat": 49.2000342,
      "lon": 16.6021259,
      "tags": {
        "addr:city": "Brno",
        "addr:housenumber": "2",
        "addr:postcode": "60200",
        "addr:street": "Slovákova",
        "amenity": "restaurant",
        "cuisine": "healthy",
        "diet:vegan": "yes",
        "diet:vegetarian": "only",
        "name": "Oaza",
        "opening_hours": "Mo-Fr 07:30-18:00",
        "wheelchair": "limited"
      }
    },
    {
      "type": "node",
      "id": 2087568906,
      "lat": 49.1802185,
      "lon": 16.6045173,
      "tags": {
        "addr:city": "Brno",
        "addr:housenumber": "1",
        "addr:postcode": "63900",
        "addr:street": "Holandská",
        "amenity": "restaurant",
        "capacity": "86",
        "contact:website": "http://www.rebio.cz",
        "diet:vegan": "yes",
        "diet:vegetarian": "only",
        "name": "Rebio",
        "opening_hours": "Mo-Fr 08:00-18:00",
        "wheelchair": "yes"
      }
    },
    {
      "type": "node",
      "id": 3163520276,
      "lat": 49.1931907,
      "lon": 16.60751,
      "tags": {
        "addr:city": "Brno",
        "addr:housenumber": "2",
        "addr:postcode": "60200",
        "addr:street": "Mečová",
        "amenity": "restaurant",
        "diet:vegan": "yes",
        "diet:vegetarian": "only",
        "level": "1",
        "name": "Rebio",
        "opening_hours": "Mo-Fr 09:00-21:00; Sa 11:00-21:00; Su 11:00-20:00",
        "smoking": "no",
        "website": "http://www.rebio.cz/"
      }
    },
    {
      "type": "node",
      "id": 3256870089,
      "lat": 49.487648,
      "lon": 16.6581375,
      "tags": {
        "amenity": "restaurant",
        "cuisine": "vegan;vegetarian",
        "diet:vegan": "yes",
        "diet:vegetarian": "only",
        "name": "Veget - Vegetariánská jídelna",
        "opening_hours": "Mo-Fr 11:00-14:30",
        "smoking": "no",
        "stars": "7",
        "website": "http://www.jidelnaklasek.cz"
      }
    },
    {
      "type": "node",
      "id": 3319051592,
      "lat": 49.1939908,
      "lon": 16.6071856,
      "tags": {
        "addr:city": "Brno",
        "addr:housenumber": "5",
        "addr:postcode": "60200",
        "addr:street": "Dominikánské náměstí",
        "amenity": "cafe",
        "diet:vegan": "yes",
        "diet:vegetarian": "only",
        "internet_access": "wlan",
        "name": "SKØG Urban Hub",
        "opening_hours": "Mo-Th 08:00-01:00, Fr 08:00-02:00, Sa 10:00-02:00, Su 12:00-22:00",
        "phone": "+420 607 098 557",
        "website": "http://www.skog.cz/",
        "wheelchair": "yes"
      }
    },
    {
      "type": "node",
      "id": 3389852552,
      "lat": 49.1936454,
      "lon": 16.6082302,
      "tags": {
        "addr:city": "Brno",
        "addr:housenumber": "12",
        "addr:postcode": "60200",
        "addr:street": "Panská",
        "amenity": "restaurant",
        "diet:vegan": "yes",
        "diet:vegetarian": "only",
        "name": "Dhaba Beas",
        "opening_hours": "Mo-Fr 11:00-21:00; Sa,Su 12:00-20:00",
        "website": "https://dhababeas.cz/",
        "wheelchair": "limited"
      }
    },
    {
      "type": "node",
      "id": 5997893486,
      "lat": 49.1913517,
      "lon": 16.6216798,
      "tags": {
        "addr:city": "Brno",
        "addr:housenumber": "45",
        "addr:postcode": "60200",
        "addr:street": "Křenová",
        "amenity": "cafe",
        "diet:lactose_free": "yes",
        "diet:raw": "yes",
        "diet:vegan": "yes",
        "diet:vegetarian": "only",
        "email": "veg8cafe@email.cz",
        "name": "Veg8café",
        "opening_hours": "Mo-Fr 07:00-16:30",
        "phone": "+420 776670608",
        "takeaway": "yes",
        "website": "http://www.veg8cafe.cz/"
      }
    },
    {
      "type": "node",
      "id": 7289524346,
      "lat": 49.3666188,
      "lon": 16.6451972,
      "tags": {
        "amenity": "restaurant",
        "diet:vegan": "yes",
        "diet:vegetarian": "only",
        "email": "karla.pernicova@seznam.cz",
        "name": "Amrit",
        "opening_hours": "Mo-Fr 10:00-14:00",
        "payment:maestro": "yes",
        "payment:mastercard": "yes",
        "payment:visa": "yes",
        "payment:visa_debit": "yes",
        "payment:visa_electron": "yes",
        "phone": "+420 608 880 665",
        "website": "http://www.jogablansko.wz.cz/amrit/html/kontakt.htm",
        "wheelchair": "yes"
      }
    },
    {
      "type": "node",
      "id": 8418025213,
      "lat": 49.1996561,
      "lon": 16.6138001,
      "tags": {
        "amenity": "restaurant",
        "diet:vegan": "yes",
        "diet:vegetarian": "only",
        "name": "Restaurace Mayada",
        "opening_hours": "Mo-Fr 08:00-19:00",
        "payment:apple_pay": "yes",
        "payment:diners_club": "yes",
        "payment:jcb": "yes",
        "payment:maestro": "yes",
        "payment:mastercard": "yes",
        "payment:meal_voucher": "yes",
        "payment:visa": "yes",
        "payment:visa_debit": "yes"
      }
    }
  ]
}